name,display_name,categories,display_categories,description,address,phone,website,source,latitude,longitude,yelp_alias,yelp_api,yelp_id
27th street bakery,27th Street Bakery,Restaurants,Restaurants,,"2700 S Central Ave Los Angeles, CA 90011",323-233-3469,https://27thstreetbakery.com/,https://docs.google.com/spreadsheets/d/18w-0RBhwBBlXDN9kRV9DVSCAGSCjtHb9K0Pq2YBv18U/htmlview,34.01746,-118.25507,27th-street-bakery-los-angeles,true,9OKF6HVQp1TMkqf6syqZ1g
2nd healthy eatery,2nd Healthy Eatery,Restaurants,Restaurants,,"16203 Clark Ave Ste A Bellflower, CA 90706",562-281-9374,https://www.2ndhealthyeatery.com/home,https://docs.google.com/spreadsheets/d/18w-0RBhwBBlXDN9kRV9DVSCAGSCjtHb9K0Pq2YBv18U/htmlview,33.88690295,-118.1342814,2nd-healthy-eatery-bellflower,true,m37pGf1rWwXmxvOHabR9Ug
3stakx kitchen,3Stakxs Kitchen,Restaurants,Restaurants,,"675 E University Dr Carson, CA 90746",,https://www.3stakxkitchen.com/,https://docs.google.com/spreadsheets/d/18w-0RBhwBBlXDN9kRV9DVSCAGSCjtHb9K0Pq2YBv18U/htmlview,33.831868,-118.28539,3stakxs-kitchen-carson,true,K-qfSrTOp3gXdBFPwbbCuA
5 star kitchen,5 Star Kitchen,Restaurants,Restaurants,,"2205 W Vernon Ave Los Angeles, CA 90008",323-316-8576,https://www.yelp.com/biz/5-star-kitchen,https://docs.google.com/spreadsheets/d/18w-0RBhwBBlXDN9kRV9DVSCAGSCjtHb9K0Pq2YBv18U/htmlview,34.00382,-118.31775,5-star-kitchen-los-angeles,true,Z78z-cVDpkd4kn0aNmnnUQ
a beautiful life,abeautifullife jamaican cafe,Restaurants,Restaurants,,"216 S Spring St Los Angeles, CA 90012",213-972-9900,https://www.abeautifullifecafe.com/,https://docs.google.com/spreadsheets/d/18w-0RBhwBBlXDN9kRV9DVSCAGSCjtHb9K0Pq2YBv18U/htmlview,34.051078,-118.2459968,abeautifullife-jamaican-cafe-los-angeles,true,wDCB-CyI07fux_Bm93ejSQ
ackee bamboo,Ackee Bamboo Jamaican Cuisine,Restaurants,Restaurants,"Ackee Bamboo, 4305 Degnan Blvd. #100, Los Angeles, (323) 295-7275, ackeebamboojacuisine.com","4305 Degnan Blvd Ste 100 Los Angeles, CA 90008",323-295-7275,http://ackeebamboojacuisine.com/,https://www.latimes.com/food/story/2020-05-31/black-owned-restaurants-in-los-angeles,34.00574,-118.33183,ackee-bamboo-jamaican-cuisine-los-angeles,true,fDIERa8MupwJMTJ97upAPg
adams coffee shop,Adams Coffee Shop,Restaurants,Restaurants,,"5357 W Adams Blvd Los Angeles, CA 90016",,https://www.altaadams.com/new-page-3,https://docs.google.com/spreadsheets/d/18w-0RBhwBBlXDN9kRV9DVSCAGSCjtHb9K0Pq2YBv18U/htmlview,34.0326313,-118.3600423,adams-coffee-shop-los-angeles,true,XZwQtJ7A40OnN6j_L1qXUg
aduke nigerian cuisine,Aduke Nigerian Cuisine,Restaurants,Restaurants,,"1117 W Manchester Blvd Ste C Inglewood, CA 90301",213-261-0737,https://aduke-african-cuisne.business.site/,https://docs.google.com/spreadsheets/d/18w-0RBhwBBlXDN9kRV9DVSCAGSCjtHb9K0Pq2YBv18U/htmlview,33.960264,-118.3758422,aduke-nigerian-cuisine-inglewood-3,true,yjw63KRuSdCzMwyslNT5lA
airport royal cuisine,Airport Royal Cuisine,Restaurants,Restaurants,,"4956 West Century Blvd Ste 10B Inglewood, CA 90304",562-413-2294,https://www.yelp.com/biz/airport-royal-cuisine,https://docs.google.com/spreadsheets/d/18w-0RBhwBBlXDN9kRV9DVSCAGSCjtHb9K0Pq2YBv18U/htmlview,33.94497,-118.36508,airport-royal-cuisine-inglewood,true,z-ov7rYczq0WmZ4xJWULyw
alex's fish market,Alex Fish Market,Restaurants,Restaurants,,"1451 W Martin Luther King Jr Blvd Los Angeles, CA 90062",323-298-4515,https://www.yelp.com/biz/alex-fish-market,https://docs.google.com/spreadsheets/d/18w-0RBhwBBlXDN9kRV9DVSCAGSCjtHb9K0Pq2YBv18U/htmlview,34.0110817,-118.3020248,alex-fish-market-los-angeles,true,16mqeTDSlhnWBnevNNibbg
all flavor no grease,All Flavor No Grease,Restaurants,Restaurants,"All Flavor No Grease,","728 E 108th St Los Angeles, CA 90059",323-318-0409,https://www.instagram.com/allflavornogrease/,https://www.latimes.com/food/story/2020-05-31/black-owned-restaurants-in-los-angeles,33.93804,-118.26194,all-flavor-no-grease-los-angeles,true,3jfH3FY3jH16d6U57lBe_A
alta adams,Alta West Adams,Restaurants,Restaurants,,"5359 West Adams Blvd Los Angeles, CA 90016",323-571-4999,https://www.altaadams.com/,https://docs.google.com/spreadsheets/d/18w-0RBhwBBlXDN9kRV9DVSCAGSCjtHb9K0Pq2YBv18U/htmlview,34.03278,-118.35994,alta-west-adams-los-angeles,true,qX4i4xyc-8Im4PLpJX-L8g
anjahles,Anjahles,Restaurants,Restaurants,,,323-300-4054,,https://docs.google.com/spreadsheets/d/18w-0RBhwBBlXDN9kRV9DVSCAGSCjtHb9K0Pq2YBv18U/htmlview,,,,false,
annie's soul delicious,Annie's Soul Delicious,Restaurants,Restaurants,,"1066 S Fairfax Ave Los Angeles, CA 90019",323-424-7402,https://www.anniessouldelicious.com/,https://docs.google.com/spreadsheets/d/18w-0RBhwBBlXDN9kRV9DVSCAGSCjtHb9K0Pq2YBv18U/htmlview,34.05624,-118.36439,annies-soul-delicious-los-angeles,true,5LU6aNLDG10imXu3btmlcw
antidote eats,Antidote Eats,Restaurants,Restaurants,,"Los Angeles, CA 90012",562-977-3366,,https://docs.google.com/spreadsheets/d/18w-0RBhwBBlXDN9kRV9DVSCAGSCjtHb9K0Pq2YBv18U/htmlview,34.0653347,-118.243891,antidote-eats-los-angeles,true,v2ZkGJqt2CThUzTKW_Zfhg
ashley cunningham,Ashley Cunningham,Restaurants,Restaurants,,,818-272-4502,https://www.youtube.com/user/ashleyamari,https://docs.google.com/spreadsheets/d/18w-0RBhwBBlXDN9kRV9DVSCAGSCjtHb9K0Pq2YBv18U/htmlview,,,,false,
awash restaurant,Awash Restaurant,Restaurants,Restaurants,"Awash, 5990 W. Pico Blvd., Los Angeles, (323) 939-3233,","5990 1/2 W Pico Blvd Los Angeles, CA 90035",323-939-3233,http://awash.cafes-world.com/?fbclid=IwAR0qaupV4ZIPPgn0ClWlYCzX-Bw5HmrN6S6eYzjwpxofVzyEfqkAVYoKaJY,https://www.latimes.com/food/story/2020-05-31/black-owned-restaurants-in-los-angeles,34.05198,-118.37067,awash-restaurant-los-angeles,true,Xt_y5kSJJs3smGys0_Wm8w
ayda ethiopian restaurant,Ayda Ethiopian Restaurant,Restaurants,Restaurants,,"24940 Redlands Blvd Loma Linda, CA 92354",909-799-6700,https://www.aydaethiopian.com/,https://docs.google.com/spreadsheets/d/18w-0RBhwBBlXDN9kRV9DVSCAGSCjtHb9K0Pq2YBv18U/htmlview,34.0631949,-117.2603084,ayda-ethiopian-restaurant-loma-linda,true,Xgc10RBy9KOqB5PNIkMLmQ
azla vegan,Azla,Restaurants,Restaurants,,"4309 Leimert Blvd Los Angeles, CA 90008",323-596-3028,https://azlavegan.com/,https://docs.google.com/spreadsheets/d/18w-0RBhwBBlXDN9kRV9DVSCAGSCjtHb9K0Pq2YBv18U/htmlview,34.005315,-118.330316,azla-los-angeles,true,00eNYXMKgUV5vMUBBBmXmQ
b&r's old-fashion burgers,B&R's Old-Fashion Burgers,Restaurants,Restaurants,"3512 Rosecrans Ave., Hawthorne, (310) 679-4774,","3512 W Rosecrans Ave Hawthorne, CA 90250",310-679-4774,http://bandrburgers.com/,https://www.latimes.com/food/story/2020-05-31/black-owned-restaurants-in-los-angeles,33.9018861,-118.3334316,b-and-rs-old-fashion-burgers-hawthorne-2,true,Q3Pr9-ZgnGUlG4D7Lk6hdg
baba's vegan cafe,Baba'S Vegan Cafe,Restaurants,Restaurants,,"4344 Degnan Blvd Los Angeles, CA 90008",310-910-2942,https://www.babasvegancafe.com/,https://docs.google.com/spreadsheets/d/18w-0RBhwBBlXDN9kRV9DVSCAGSCjtHb9K0Pq2YBv18U/htmlview,,,,false,
baby love sweetery,Baby Love Sweetery,Restaurants,Restaurants,,"Los Angeles, CA 91607",818-600-2136,https://www.babylovesweetery.com/,https://docs.google.com/spreadsheets/d/18w-0RBhwBBlXDN9kRV9DVSCAGSCjtHb9K0Pq2YBv18U/htmlview,34.16821,-118.39846,baby-love-sweetery-los-angeles,true,zaSQ9KNp6nTAWKJ5bKtS1w
bakedt gourmet goods,Bakedt Gourmet Goods,Restaurants,Restaurants,,,,https://www.facebook.com/bakedtgourmetgoods/,https://docs.google.com/spreadsheets/d/18w-0RBhwBBlXDN9kRV9DVSCAGSCjtHb9K0Pq2YBv18U/htmlview,,,,false,
banadir somali restaurant,Banadir Somali Restaurant,Restaurants,Restaurants,,"137 W Arbor Vitae Unit C Inglewood, CA 90301",310-419-9900,http://banadir-somali-restaurant.cafe,https://docs.google.com/spreadsheets/d/18w-0RBhwBBlXDN9kRV9DVSCAGSCjtHb9K0Pq2YBv18U/htmlview,33.95293109,-118.3558946,banadir-somali-restaurant-inglewood,true,4L6FyuHmnPqLrGgPNelATQ
barbara jean soul food,Barbara Jean La,Restaurants,Restaurants,,"3939 S Figueroa St Los Angeles, CA 90037",,http://barbarajeanla.com/,https://docs.google.com/spreadsheets/d/18w-0RBhwBBlXDN9kRV9DVSCAGSCjtHb9K0Pq2YBv18U/htmlview,34.012794,-118.28554,barbara-jean-la-los-angeles-2,true,RNJtirMHfF6cC3lIcSL8SA
barsha,Barsha,Restaurants,Restaurants,,"1141 Aviation Blvd Hermosa Beach, CA 90254",424-452-6266,https://www.barshalife.com/,https://docs.google.com/spreadsheets/d/18w-0RBhwBBlXDN9kRV9DVSCAGSCjtHb9K0Pq2YBv18U/htmlview,33.86584333,-118.3872035,barsha-hermosa-beach,true,1N5AOcZBdWS5xxOFe00nig
bayou grille,Bayou Grille,Restaurants,Restaurants,,"1400 N La Brea Ave Inglewood, CA 90302",310-673-0824,https://www.bayougrille.net/,https://docs.google.com/spreadsheets/d/18w-0RBhwBBlXDN9kRV9DVSCAGSCjtHb9K0Pq2YBv18U/htmlview,33.98036,-118.35785,bayou-grille-inglewood,true,wEhXHMhq7NpPlqx68dMT3w
bb's cafe,BB's Cafe,Restaurants,Restaurants,"BB’s Cafe, 502 N. Citrus Ave., Covina, (626) 888-4960","502 N Citrus Ave Covina, CA 91723",626-888-4960,,https://www.latimes.com/food/story/2020-05-31/black-owned-restaurants-in-los-angeles,34.09037399,-117.8898849,bbs-cafe-covina,true,um2mX5q-jzUGkae8z3MbEw
bbq chef,BBQ Chef,Restaurants,Restaurants,,"1782 Martin Luther King Jr Ave Long Beach, CA 90813",562-612-1939,https://www.yelp.com/biz/bbq-chef,https://docs.google.com/spreadsheets/d/18w-0RBhwBBlXDN9kRV9DVSCAGSCjtHb9K0Pq2YBv18U/htmlview,33.7895071,-118.1805079,bbq-chef-long-beach,true,b8ziV6dS946Tn0dp-mRGVQ
belizean fish market,Belizean Fish Market,Restaurants,Restaurants,,"2640 S Western Ave Los Angeles, CA 90018",323-732-5405,https://www.yelp.com/biz/belizean,https://docs.google.com/spreadsheets/d/18w-0RBhwBBlXDN9kRV9DVSCAGSCjtHb9K0Pq2YBv18U/htmlview,34.03142548,-118.3086166,belizean-fish-market-los-angeles,true,5Q3zBMhyBrggLWLX2iytYA
belly's sliders & wings,Belly's Sliders & Wings,Restaurants,Restaurants,"Belly’s Sliders & Wings,","Carson, CA 90220",424-242-5554,https://www.bellysslidersandwings.com/,https://www.latimes.com/food/story/2020-05-31/black-owned-restaurants-in-los-angeles,33.8953,-118.22728,bellys-sliders-and-wings-carson,true,Xrr43w7OFe7NxREt3KWBLQ
bent soul food and bent events,Bent SOUL Food and Bent Events,Restaurants,Restaurants,,"Los Angeles, CA 90210",323-628-2856,https://bentevents.com/,https://docs.google.com/spreadsheets/d/18w-0RBhwBBlXDN9kRV9DVSCAGSCjtHb9K0Pq2YBv18U/htmlview,34.1030032,-118.4104684,bent-soul-food-and-bent-events-los-angeles,true,X8qqS-DXRqR0fg4SaL3y_g
beyond vegan,Beyond Vegan,Restaurants,Restaurants,,"485 S Fairfax Ave Los Angeles, CA 90036",323-530-8694,https://beyondveganlifestyle.com/,https://docs.google.com/spreadsheets/d/18w-0RBhwBBlXDN9kRV9DVSCAGSCjtHb9K0Pq2YBv18U/htmlview,34.067564,-118.361706,beyond-vegan-los-angeles-2,true,P9Y9fAGm_5w9DpqQgPD9-A
big ant's bbq,Big Ants BBQ,Restaurants,Restaurants,,"2207 N San Fernando Rd Los Angeles, CA 90065",323-987-0029,https://www.bigantsbbq.com/,https://docs.google.com/spreadsheets/d/18w-0RBhwBBlXDN9kRV9DVSCAGSCjtHb9K0Pq2YBv18U/htmlview,34.10393479,-118.2377386,big-ants-bbq-los-angeles-2,true,Auv41ZI3Rco6By1pUtEqlQ
big daddy's kickin' chicken,Big Daddy's Kickin Chicken,Restaurants,Restaurants,"Big Chicken, 252 S. Brand Blvd., Glendale, (818) 245-6886,","214 E Nutwood St Inglewood, CA 90301",424-309-9008,https://www.bigchicken.com,https://www.latimes.com/food/story/2020-05-31/black-owned-restaurants-in-los-angeles,33.9603265,-118.3529278,big-daddys-kickin-chicken-inglewood,true,cdpHz7SJYmoVZo37pd-3LA
big fish market,Big Fish Market,Restaurants,Restaurants,,"8409 S 8th Ave Ste 1 Inglewood, CA 90305",323-750-6000,https://big-fish-market.business.site/,https://docs.google.com/spreadsheets/d/18w-0RBhwBBlXDN9kRV9DVSCAGSCjtHb9K0Pq2YBv18U/htmlview,33.9622417,-118.3265149,big-fish-market-inglewood,true,Tbk0zswbDL3hVXPOrVlh9w
billionaire burger boyz,Billionaire Burger Boyz,Restaurants,Restaurants,,"811 S Long Beach Blvd Compton, CA 90221",310-554-4116,https://www.billionaireburgerboyz.com/,https://docs.google.com/spreadsheets/d/18w-0RBhwBBlXDN9kRV9DVSCAGSCjtHb9K0Pq2YBv18U/htmlview,33.8893305,-118.2074657,billionaire-burger-boyz-compton,true,1ON2XXttBB7k5Z5LvZrVlw
black bottom southern kitchen,Black Bottom Southern Kitchen,Restaurants,Restaurants,,"4806 Vineland Ave North Hollywood, CA 91601",818-856-8532,https://blackbottomkitchen.com/,https://docs.google.com/spreadsheets/d/18w-0RBhwBBlXDN9kRV9DVSCAGSCjtHb9K0Pq2YBv18U/htmlview,34.15782,-118.36991,black-bottom-southern-kitchen-north-hollywood,true,813n1w3hzNY6rYasOhk-CA
black cat bbq,Black Cat BBQ,Restaurants,Restaurants,,"Los Angeles, CA 90032",213-477-3676,http://blackcatbbq.com/,https://docs.google.com/spreadsheets/d/18w-0RBhwBBlXDN9kRV9DVSCAGSCjtHb9K0Pq2YBv18U/htmlview,34.0843277,-118.1707611,black-cat-bbq-los-angeles-2,true,f8Xm7g5WHMB50ocAnZuJkw
blaqhaus noho,BlaqHaus NoHo,Restaurants,Restaurants,"BlaqHaus NoHo, 11671 Victory Blvd., North Hollywood, (818) 332-0500,","11671 Victory Blvd North Hollywood, CA 91606",818-332-0500,https://www.restaurantnoho.com,https://www.latimes.com/food/story/2020-05-31/black-owned-restaurants-in-los-angeles,34.1868798,-118.386856,blaqhaus-noho-north-hollywood-2,true,eCSw27Fbh6g06zl0zs-acw
blessed tropical jamaican cuisine,Blessed Tropical Jamaican Cuisine,Restaurants,Restaurants,,"901 S Prarie Ave Inglewood, CA 90301",310-330-0649,,https://docs.google.com/spreadsheets/d/18w-0RBhwBBlXDN9kRV9DVSCAGSCjtHb9K0Pq2YBv18U/htmlview,33.95241,-118.34444,blessed-tropical-jamaican-cuisine-inglewood,true,JOAca31tsAbFBclIg-u80g
bloom & plume coffee,Bloom & Plume Coffee,Restaurants,Restaurants,"Artist and floral designer Maurice Harris recently opened a cafe next to his studio, selling coffee, merchandise and more. 1638-1640 W. Temple St., Los Angeles, (213) 908-5808, bloomandplume.com","1638 W Temple St Los Angeles, CA 90026",213-908-5808,https://bloomandplumecoffee.com/,https://www.latimes.com/lifestyle/story/2020-06-03/black-owned-businesses-in-los-angeles,34.06816,-118.26232,bloom-and-plume-coffee-los-angeles-4,true,25TCXWyE3hW3vbeKUI0Ohg
bludso's bar & que,Bludso's Bar & Que,Restaurants,Restaurants,,"609 N La Brea Ave Los Angeles, CA 90036",323-931-2583,https://www.barandque.com/,https://docs.google.com/spreadsheets/d/18w-0RBhwBBlXDN9kRV9DVSCAGSCjtHb9K0Pq2YBv18U/htmlview,34.0821746,-118.3442326,bludsos-bar-and-que-los-angeles,true,Baqs3SIHR60lXxXAFkjTDg
bo daddy's bbq,Bo Daddy’s BBQ,Restaurants,Restaurants,,"1415 S Hill St Los Angeles, CA 90015",213-536-5210,https://www.bodaddys.com/,https://docs.google.com/spreadsheets/d/18w-0RBhwBBlXDN9kRV9DVSCAGSCjtHb9K0Pq2YBv18U/htmlview,34.03579025,-118.2639037,bo-daddy-s-bbq-los-angeles,true,ImWjgRhcohdWYTPUt4iaZw
bohemian house of espresso + chai,Bohemian House of Espresso + Chai,Restaurants,Restaurants,,"548 S Spring St R110 Los Angeles, CA 90013",213-628-3086,https://www.bohemianchai.com/,https://docs.google.com/spreadsheets/d/18w-0RBhwBBlXDN9kRV9DVSCAGSCjtHb9K0Pq2YBv18U/htmlview,34.04588261,-118.2506987,bohemian-house-of-espresso-chai-los-angeles,true,w_uQgLW_sYfK0hlhkAUynQ
boketto cold brew,Boketto Cold Brew,Restaurants,Restaurants,"Boketto delivers cold brew coffee directly to homes, offices and restaurants. It also has artisan teas and a cold-brew nitro bike that can be rented for events.","743 B S Broadway Los Angeles, CA 90014",310-490-5394,https://www.bokettocoldbrew.com/,https://www.latimes.com/lifestyle/story/2020-06-12/heres-a-list-of-black-owned-coffee-shops-in-la,34.044369,-118.254626,boketto-cold-brew-los-angeles,true,gIkMwGQifvOyOL35LGSDEg
bonnie b's smokin bbq heaven,Bonnie B's Smokin,Restaurants,Restaurants,,"1280 N Lake Ave Pasadena, CA 91104",626-794-0132,https://www.bonniebssmokin.com/,https://docs.google.com/spreadsheets/d/18w-0RBhwBBlXDN9kRV9DVSCAGSCjtHb9K0Pq2YBv18U/htmlview,34.16801,-118.13186,bonnie-bs-smokin-pasadena-3,true,CGTB0J-2FZdcEisDSlqmMw
brandoni pepperoni,Brandoni Pepperoni,Restaurants,Restaurants,Inventive riffs on Southern breakfast cuisine from formerly underground chefs in a low-key setting.,"7100 Santa Monica Blvd West Hollywood, CA 90046",323-306-4968,https://www.brandoni-pepperoni.com/,https://docs.google.com/spreadsheets/d/18w-0RBhwBBlXDN9kRV9DVSCAGSCjtHb9K0Pq2YBv18U/htmlview,34.089909,-118.344643,brandoni-pepperoni-west-hollywood,true,84SaHfwZcPp0c8uZdhyLOQ
bree's cakes,Bree's Cakes,Restaurants,Restaurants,,"6740 Reseda Blvd Unit D Reseda, CA 91335",805-444-2733,https://www.breescakes.com/,https://docs.google.com/spreadsheets/d/18w-0RBhwBBlXDN9kRV9DVSCAGSCjtHb9K0Pq2YBv18U/htmlview,34.1932743,-118.5356486,brees-cakes-reseda-2,true,FF_eYzLUYuwIVLNR2DXxHw
bridgetown roti,Bridgetown Roti,Restaurants,Restaurants,,"2029 Sheridan St Los Angeles, CA 90033",,https://www.instagram.com/bridgetown_roti/,https://docs.google.com/spreadsheets/d/18w-0RBhwBBlXDN9kRV9DVSCAGSCjtHb9K0Pq2YBv18U/htmlview,,,,false,
brother's bar-b-que,Brothers Bar-B-Que,Restaurants,Restaurants,"Brother’s Bar-B-Que, 7725 Crenshaw Blvd., Los Angeles, (323) 751-1050,","7725 Crenshaw Blvd Los Angeles, CA 90043",323-751-1050,http://www.brotherbarbequecatering.com,https://www.latimes.com/food/story/2020-05-31/black-owned-restaurants-in-los-angeles,33.969372,-118.33121,brothers-bar-b-que-los-angeles,true,C93pdr3xaq_wU0Zj7LLs3A
brother's keeper bbq,Brothers Keeper BBQ,Restaurants,Restaurants,,"Long Beach, CA 90815",562-264-5955,https://www.brotherskeeperbbq.com/,https://docs.google.com/spreadsheets/d/18w-0RBhwBBlXDN9kRV9DVSCAGSCjtHb9K0Pq2YBv18U/htmlview,33.7896,-118.13151,brothers-keeper-bbq-long-beach,true,hONbZzpOMCGcM0byZCwmGQ
buna ethiopian restaurant & market,Buna Ethiopian Restaurant & Market,Restaurants,Restaurants,,"1034 S Fairfax Ave Los Angeles, CA 90019",323-964-9731,https://bunaethiopianmarket.com/,https://docs.google.com/spreadsheets/d/18w-0RBhwBBlXDN9kRV9DVSCAGSCjtHb9K0Pq2YBv18U/htmlview,34.0570974,-118.3641842,buna-ethiopian-restaurant-and-market-los-angeles-2,true,FqyTKMzJVf54TlRnfp5lCQ
bundts on melrose,Bundts On Melrose,Restaurants,Restaurants,,"4147 Long Beach Blvd Long Beach, CA 90807",888-928-6387,http://www.bundtsonmelrose.com/,https://docs.google.com/spreadsheets/d/18w-0RBhwBBlXDN9kRV9DVSCAGSCjtHb9K0Pq2YBv18U/htmlview,33.833702,-118.1894949,bundts-on-melrose-long-beach,true,Yk04GDiahNjRWnpxQv3yug
busy baking,Busy Baking,Restaurants,Restaurants,"Busy Baking, 11861 S. Inglewood Ave., Hawthorne, (323) 919-3937,","11861 Inglewood Ave Hawthorne, CA 90250",323-919-3937,https://www.busybaking.info/,https://www.latimes.com/food/story/2020-05-31/black-owned-restaurants-in-los-angeles,33.9258337,-118.3617817,busy-baking-hawthorne,true,2qtwMYmHXlehB4M5_g09xw
cafe buna,Cafe Buna,Restaurants,Restaurants,,"552 Washington Blvd Marina del Rey, CA 90292",310-823-2430,https://cafe-buna.business.site/,https://docs.google.com/spreadsheets/d/18w-0RBhwBBlXDN9kRV9DVSCAGSCjtHb9K0Pq2YBv18U/htmlview,33.98316567,-118.4596348,cafe-buna-marina-del-rey,true,Y9wMzacINQ1Rm44vKpC-4Q
cafe creole,Cafe Creole,Restaurants,Restaurants,,"3650 W Martin Luther King Jr Blvd Ste 144 Los Angeles, CA 90008",323-389-8355,http://www.eatatcafecreole.com/,https://docs.google.com/spreadsheets/d/18w-0RBhwBBlXDN9kRV9DVSCAGSCjtHb9K0Pq2YBv18U/htmlview,34.0109188,-118.3366526,cafe-creole-los-angeles,true,uPeWc6p4KLMHRve4OlLVEg
café ruisseau,Cafe Ruisseau,Restaurants,Restaurants,"Café Ruisseau, 12150 Millennium Drive, Los Angeles, (323) 561-0223,","12150 Millennium Dr Los Angeles, CA 90094",323-561-0223,https://caferuisseau.com/,https://www.latimes.com/food/story/2020-05-31/black-owned-restaurants-in-los-angeles,33.97961487,-118.4082239,cafe-ruisseau-los-angeles,true,IJgGV-hzD5Q1_VKjS-LbBg
cake buzz,Cake Buzz,Restaurants,Restaurants,,"2701 Artesia Blvd Redondo Beach, CA 90278",310-793-2899,https://cakebuzzla.com/,https://docs.google.com/spreadsheets/d/18w-0RBhwBBlXDN9kRV9DVSCAGSCjtHb9K0Pq2YBv18U/htmlview,33.87317,-118.36203,cake-buzz-redondo-beach-4,true,oRLC5NEsHUMjamSJ7QlB1Q
camille's,Camille's,Restaurants,Restaurants,,"2713 W Olive Ave Burbank, CA 91505",818-570-1734,https://www.facebook.com/camillesbakes4u/,https://docs.google.com/spreadsheets/d/18w-0RBhwBBlXDN9kRV9DVSCAGSCjtHb9K0Pq2YBv18U/htmlview,34.1595,-118.33169,camilles-burbank-2,true,_P37wku5YoW2G1fBp5eQJg
caribbean gourmet,Caribbean Gourmet,Restaurants,Restaurants,,"45 N San Gabriel Blvd Pasadena, CA 91107",323-447-0118,https://www.instagram.com/caribbeangourmet/,https://docs.google.com/spreadsheets/d/18w-0RBhwBBlXDN9kRV9DVSCAGSCjtHb9K0Pq2YBv18U/htmlview,34.14679337,-118.0948639,caribbean-gourmet-pasadena,true,pHzwgmIvx1FXUsFK4Kg2ew
castle's catering,Castle's Catering,Restaurants,Restaurants,,"4287 Crenshaw Blvd Los Angeles, CA 90008",818-724-4866,https://www.castlescatering.com,https://docs.google.com/spreadsheets/d/18w-0RBhwBBlXDN9kRV9DVSCAGSCjtHb9K0Pq2YBv18U/htmlview,34.0056987,-118.3342202,castles-catering-los-angeles-8,true,tJxpIxaw24l6vnu750G-5A
chef kiki's kitchen,Chef Kikis Kitchen,Restaurants,Restaurants,,"Los Angeles, CA 90007",323-861-1580,https://www.yelp.com/biz/chef-kikis-kitchen,https://docs.google.com/spreadsheets/d/18w-0RBhwBBlXDN9kRV9DVSCAGSCjtHb9K0Pq2YBv18U/htmlview,34.02737808,-118.2835693,chef-kikis-kitchen-los-angeles,true,6G9AHe0HN-4NbL-yp5CyQw
chef marilyn's,Chef Marilyn's,Restaurants,Restaurants,"Chef Marilyn’s, 2638 Crenshaw Blvd., Los Angeles, (323) 737-8101,","2638 Crenshaw Blvd Los Angeles, CA 90016",323-737-8101,https://www.chefmarilyns2638.com/,https://www.latimes.com/food/story/2020-05-31/black-owned-restaurants-in-los-angeles,34.0312698,-118.3349851,chef-marilyns-los-angeles-2,true,0hddg8pBXwnGog0bmmIm9w
chicken n chips,Chicken N Chips,Restaurants,Restaurants,,"2728 Fletcher Dr Los Angeles, CA 90039",323-922-1070,https://chickennchips.com/,https://docs.google.com/spreadsheets/d/18w-0RBhwBBlXDN9kRV9DVSCAGSCjtHb9K0Pq2YBv18U/htmlview,34.1106822,-118.2507259,chicken-n-chips-los-angeles-2,true,IEElIOYoPqunZSgUx0h1-g
chipper & cheeky,Chipper & Cheeky,Restaurants,Restaurants,,"Los Angeles, CA 91353",661-537-3753,https://www.chipperandcheeky.com/,https://docs.google.com/spreadsheets/d/18w-0RBhwBBlXDN9kRV9DVSCAGSCjtHb9K0Pq2YBv18U/htmlview,34.21728,-118.3689,chipper-and-cheeky-los-angeles,true,c8HPHQSNWHCf9B4blpPwQA
chulita,Chulita,Restaurants,Restaurants,,"533 Rose Ave Venice, CA 90291",424-252-9886,https://www.chulita.com/,https://docs.google.com/spreadsheets/d/18w-0RBhwBBlXDN9kRV9DVSCAGSCjtHb9K0Pq2YBv18U/htmlview,33.99886,-118.47311,chulita-venice,true,OCkQdKMHU-LwWTWNe5leBA
cliff's texas style burritos,Cliff's Texas Style Burritos,Restaurants,Restaurants,,"408 W Alondra Blvd Compton, CA 90220",310-609-2755,http://www.cliffsburritos.com/,https://docs.google.com/spreadsheets/d/18w-0RBhwBBlXDN9kRV9DVSCAGSCjtHb9K0Pq2YBv18U/htmlview,33.88829422,-118.2285156,cliffs-texas-style-burritos-compton,true,i6VsCJtOlhEjAFVpHs5Q-g
cobbler mania,Cobblermania,Restaurants,Restaurants,,"8300 S Western Ave Golden Bird Los Angeles, CA 90047",323-316-4793,https://www.instagram.com/cobblermania/?hl=en,https://docs.google.com/spreadsheets/d/18w-0RBhwBBlXDN9kRV9DVSCAGSCjtHb9K0Pq2YBv18U/htmlview,33.963428,-118.308866,cobblermania-los-angeles,true,7Q-F_lH7--VlnqaG1v3-6g
"cobblers, cakes & kream",Cobblers Cakes & Kream,Restaurants,Restaurants,,"2323 W Manchester Blvd Ste B Inglewood, CA 90305",323-455-1224,https://cobblerscakesandkream.com/,https://docs.google.com/spreadsheets/d/18w-0RBhwBBlXDN9kRV9DVSCAGSCjtHb9K0Pq2YBv18U/htmlview,33.96025,-118.31948,cobblers-cakes-and-kream-inglewood,true,iCHau6GTIdBbWU81RCSUoA
coco luv,Coco Luv,Restaurants,Restaurants,,"10880 Wilshire Blvd Los Angeles, CA 90024",,https://cocoluvcookies.com/,https://docs.google.com/spreadsheets/d/18w-0RBhwBBlXDN9kRV9DVSCAGSCjtHb9K0Pq2YBv18U/htmlview,,,,false,
coffee and plants,Coffee and Plants,Restaurants,Restaurants,Pasadena,"62 W Union St Unit 2 Pasadena, CA 91103",626-615-1261,https://www.yelp.com/biz/coffee-and-plants-pasadena,https://loveandloathingla.com/list-of-black-owned-businesses-in-la/,34.146609,-118.1517787,coffee-and-plants-pasadena,true,ueIYsLaikpCS_7kOC_Cg2g
coffee by kofi,Coffee by Kofi,Restaurants,Restaurants,,"1933 S Broadway Los Angeles, CA 90007",646-725-9580,https://www.coffeebykofi.com/,https://docs.google.com/spreadsheets/d/18w-0RBhwBBlXDN9kRV9DVSCAGSCjtHb9K0Pq2YBv18U/htmlview,34.031043,-118.266291,coffee-by-kofi-los-angeles-2,true,x1HierOUSxuZ2NJb1cttqQ
coffee del mundo,Coffee Del Mundo,Restaurants,Restaurants,,"7414 S Vermont Ave Los Angeles, CA 90044",323-455-0285,https://coffeedelmundo.com/,https://docs.google.com/spreadsheets/d/18w-0RBhwBBlXDN9kRV9DVSCAGSCjtHb9K0Pq2YBv18U/htmlview,33.97212,-118.29111,coffee-del-mundo-los-angeles,true,elu_CU6oNbMzLIiDtNy3ww
colony,Colony Cooks,Restaurants,Restaurants,"Los Angeles, (310) 699-8642,","11419 Santa Monica Blvd Los Angeles, CA 90025",424-346-1420,https://www.tandtlifestylelosangeles.com/,https://www.latimes.com/food/story/2020-05-31/black-owned-restaurants-in-los-angeles,34.04586167,-118.4514983,colony-cooks-los-angeles,true,H-jPeB876pStd1TFOtb5hQ
comfort la,Comfort LA,Restaurants,Restaurants,,"1110 E 7th St Los Angeles, CA 90021",213-537-0844,https://www.eatcomfortla.com/,https://docs.google.com/spreadsheets/d/18w-0RBhwBBlXDN9kRV9DVSCAGSCjtHb9K0Pq2YBv18U/htmlview,34.0377826,-118.2428721,comfort-la-los-angeles,true,yAuYzMcr57EVrPzyOcODlQ
compton vegan,Compton Vegan,Restaurants,Restaurants,,"11419 Santa Monica Blvd Los Angeles, CA 90025",310-596-6690,https://comptonvegan.com/,https://docs.google.com/spreadsheets/d/18w-0RBhwBBlXDN9kRV9DVSCAGSCjtHb9K0Pq2YBv18U/htmlview,34.04586167,-118.4514983,compton-vegan-los-angeles,true,aBWgoiaF5rooZigrrCsLpg
country style jamaican restaurant,Country Style Jamaican Restaurant,Restaurants,Restaurants,,"630 N La Brea Ave Inglewood, CA 90302",424-227-6915,https://www.yelp.com/biz/country-style-jamaican,https://docs.google.com/spreadsheets/d/18w-0RBhwBBlXDN9kRV9DVSCAGSCjtHb9K0Pq2YBv18U/htmlview,33.97108,-118.35691,country-style-jamaican-restaurant-inglewood,true,Ym7LPXNWII3K-3gGShtONA
cravin crab cakes,Cravin' Crab Cakes,Restaurants,Restaurants,,"Pasadena, CA",619-307-1581,https://cravincrabcakes.com/,https://docs.google.com/spreadsheets/d/18w-0RBhwBBlXDN9kRV9DVSCAGSCjtHb9K0Pq2YBv18U/htmlview,34.14744949,-118.1442719,cravin-crab-cakes-pasadena,true,aq9EL-BXPSPMd3DBk855Ww
crustees eatery,Crustees Eatery,Restaurants,Restaurants,,"4442 W Slauson Ave Los Angeles, CA 90043",323-815-9910,https://www.crusteeseatery.com/,https://docs.google.com/spreadsheets/d/18w-0RBhwBBlXDN9kRV9DVSCAGSCjtHb9K0Pq2YBv18U/htmlview,33.9886408,-118.3533352,crustees-eatery-los-angeles,true,nI1Bk_OqAkARO-siTQbuTw
cw & chris fish and chicken,CW & Chris Fish and Chicken,Restaurants,Restaurants,,"6512 S Western Ave Los Angeles, CA 90047",323-750-9403,https://cwandchris.wixsite.com/cwandchris,https://docs.google.com/spreadsheets/d/18w-0RBhwBBlXDN9kRV9DVSCAGSCjtHb9K0Pq2YBv18U/htmlview,33.9801451,-118.3088351,cw-and-chris-fish-and-chicken-los-angeles,true,PmoRirPga162TlChyaN_bg
d's original take out grill,D's Original Take Out Grill,Restaurants,Restaurants,,"7873 S Western Ave Los Angeles, CA 90047",323-971-3663,https://www.dsogtakeoutgrill.com/,https://docs.google.com/spreadsheets/d/18w-0RBhwBBlXDN9kRV9DVSCAGSCjtHb9K0Pq2YBv18U/htmlview,33.96748,-118.30933,ds-original-take-out-grill-los-angeles-3,true,fUYhn5MnmwkUcAMoC-Sp0A
darrow's new orleans grill,Darrow's New Orleans Grill,Restaurants,Restaurants,,"21720 Avalon Blvd Ste 102B Carson, CA 90745",424-570-0531,https://www.darrowsneworleansgrill.com/,https://docs.google.com/spreadsheets/d/18w-0RBhwBBlXDN9kRV9DVSCAGSCjtHb9K0Pq2YBv18U/htmlview,33.83073,-118.26305,darrows-new-orleans-grill-carson,true,wv1ZZLWrFh4Hc7MCQ1kjJA
day day's bbq & waffle house,Day Day's BBQ & Waffle House,Restaurants,Restaurants,,"994 E Holt Blvd Pomona, CA 91767",909-622-3217,http://days-bbq-and-waffle.top-cafes.com/,https://docs.google.com/spreadsheets/d/18w-0RBhwBBlXDN9kRV9DVSCAGSCjtHb9K0Pq2YBv18U/htmlview,34.062632,-117.730896,day-days-bbq-and-waffle-house-pomona-3,true,oAIS7iM8b2SVALDKONvJow
dd'z treatz,Dd'Z Treatz,Restaurants,Restaurants,,"11228 S New Hampshire Ave Los Angeles, CA 90044",310-845-6152,,https://docs.google.com/spreadsheets/d/18w-0RBhwBBlXDN9kRV9DVSCAGSCjtHb9K0Pq2YBv18U/htmlview,,,,false,
de porres dinner series,De Porres Dinner Series,Restaurants,Restaurants,,"315 N Sierra Bonita Ave Los Angeles, CA 90036",646-391-4529,http://www.de-porres.com/,https://docs.google.com/spreadsheets/d/18w-0RBhwBBlXDN9kRV9DVSCAGSCjtHb9K0Pq2YBv18U/htmlview,,,,false,
delvigne croissant,Delvigne Croissant,Restaurants,Restaurants,,"9626 Venice Blvd Culver City, CA 90232",213-326-4404,https://www.delvignecroissant.com/,https://docs.google.com/spreadsheets/d/18w-0RBhwBBlXDN9kRV9DVSCAGSCjtHb9K0Pq2YBv18U/htmlview,34.0244076,-118.3964757,delvigne-croissant-culver-city,true,NxrptCvV4mdgNbWBxapMTw
derrick's on atlantic,Derricks on Atlantic,Restaurants,Restaurants,,"3502 Atlantic Ave Long Beach, CA 90807",562-337-8131,https://derricksonatlantic.com/,https://docs.google.com/spreadsheets/d/18w-0RBhwBBlXDN9kRV9DVSCAGSCjtHb9K0Pq2YBv18U/htmlview,33.820213,-118.184598,derricks-on-atlantic-long-beach,true,UHIyA47fD5_CXyjloulUWA
devi's donuts,Devi's Donuts and Sweets,Restaurants,Restaurants,,"130 Cherry Ave Long Beach, CA 90813",949-280-1859,https://devisdonutsandsweets.com/#backtotop,https://docs.google.com/spreadsheets/d/18w-0RBhwBBlXDN9kRV9DVSCAGSCjtHb9K0Pq2YBv18U/htmlview,33.766006,-118.16733,devis-donuts-and-sweets-long-beach,true,N_ADVz6vbxXmOK_0DUJ5ow
dirty south soulfood,Dirty South Soulfood,Restaurants,Restaurants,,"8101 Long Beach Blvd South Gate, CA 90280",323-537-8007,https://www.dirtysoulfood.shop/,https://docs.google.com/spreadsheets/d/18w-0RBhwBBlXDN9kRV9DVSCAGSCjtHb9K0Pq2YBv18U/htmlview,33.9649,-118.22554,dirty-south-soulfood-south-gate-2,true,wFBv3M7WiaVhV7jyQw2_VQ
divine dips,Divine Dips Vegan Ice Creme,Restaurants,Restaurants,,"601 S Los Angeles St Los Angeles, CA 90014",213-265-7785,http://divinedipsicecreme.com/,https://docs.google.com/spreadsheets/d/18w-0RBhwBBlXDN9kRV9DVSCAGSCjtHb9K0Pq2YBv18U/htmlview,34.0445458,-118.2491933,divine-dips-vegan-ice-creme-los-angeles-2,true,f81mFVDBK_KKFtQMmT1fvw
doll babee cheesecakes,Doll Babee Cheesecakes,Restaurants,Restaurants,,"500 Lakewood Center Mall Lakewood, CA 90712",562-232-9961,http://dollbabeecheesecakes.com/,https://docs.google.com/spreadsheets/d/18w-0RBhwBBlXDN9kRV9DVSCAGSCjtHb9K0Pq2YBv18U/htmlview,33.850642,-118.139542,doll-babee-cheesecakes-lakewood-2,true,FaoN-2_L_wsrgJimpiD3dQ
dulan's on crenshaw,Dulan's On Crenshaw,Restaurants,Restaurants,,"4859 Crenshaw Blvd Los Angeles, CA 90043",323-296-3034,https://dulansoncrenshaw.com/,https://docs.google.com/spreadsheets/d/18w-0RBhwBBlXDN9kRV9DVSCAGSCjtHb9K0Pq2YBv18U/htmlview,33.9984983,-118.3311944,dulans-on-crenshaw-los-angeles,true,4ZmXcttDdx9KRGUi6tMWFQ
dulan's soul food kitchen,Dulan's Soul Food Kitchen,Restaurants,Restaurants,,"202 E Manchester Blvd Inglewood, CA 90301",310-671-3345,https://www.dulans-sfk.com/,https://docs.google.com/spreadsheets/d/18w-0RBhwBBlXDN9kRV9DVSCAGSCjtHb9K0Pq2YBv18U/htmlview,33.9615532,-118.3530243,dulans-soul-food-kitchen-inglewood-2,true,Yf4lciWF90LPKIykRD-B9g
e & j seafood,E & J Seafood,Restaurants,Restaurants,,"424 E Manchester Blvd Inglewood, CA 90301",310-673-0113,https://www.yelp.com/biz/e-and-j-seafood,https://docs.google.com/spreadsheets/d/18w-0RBhwBBlXDN9kRV9DVSCAGSCjtHb9K0Pq2YBv18U/htmlview,33.9616551,-118.34979,e-and-j-seafood-inglewood-2,true,LghoaB1B8wMzBh6I-qZi1Q
earle's on crenshaw,Earle's On Crenshaw,Restaurants,Restaurants,,"3864 Crenshaw Blvd Los Angeles, CA 90008",323-299-2867,https://earlesrestaurant.com/,https://docs.google.com/spreadsheets/d/18w-0RBhwBBlXDN9kRV9DVSCAGSCjtHb9K0Pq2YBv18U/htmlview,34.01562331,-118.3347559,earles-on-crenshaw-los-angeles,true,ITNAxP_RUZ_FCPFNt7pjmw
erm 4th street,Erm 4Th Street,Restaurants,Restaurants,,"2635 East 4th StLos Angeles, CA 90033",323-406-2106,http://www.eatrealordie.com,https://docs.google.com/spreadsheets/d/18w-0RBhwBBlXDN9kRV9DVSCAGSCjtHb9K0Pq2YBv18U/htmlview,,,,false,
everlasting barbeque,Yangmani,Restaurants,Restaurants,,"2561 W Olympic Blvd Los Angeles, CA 90006",213-249-9292,http://everlastingbbq.com/Home_Page.html,https://docs.google.com/spreadsheets/d/18w-0RBhwBBlXDN9kRV9DVSCAGSCjtHb9K0Pq2YBv18U/htmlview,34.05263,-118.2869,yangmani-los-angeles-2,true,Yit4Cis7BNRt-X_qTTccLQ
family fish market,Family Fish Market,Restaurants,Restaurants,,"1300 Centinela Ave Inglewood, CA 90302",310-680-4944,http://www.familyfishmarket.com/,https://docs.google.com/spreadsheets/d/18w-0RBhwBBlXDN9kRV9DVSCAGSCjtHb9K0Pq2YBv18U/htmlview,33.9769733,-118.3618315,family-fish-market-inglewood,true,nkCmaZyWERlUY7BQlY1zGg
fish bone seafood - strawberry square,Fisherman's Outlet,Restaurants,Restaurants,,"529 S Central Ave Los Angeles, CA 90013",213-627-7231,https://fishboneseafood.com,https://docs.google.com/spreadsheets/d/18w-0RBhwBBlXDN9kRV9DVSCAGSCjtHb9K0Pq2YBv18U/htmlview,34.04083,-118.24018,fishermans-outlet-los-angeles,true,TQjFx3yzyUYBdWb-MpIfvQ
fishbone express gardena gardena,Fishbone Express - Gardena,Restaurants,Restaurants,,"1024 W Rosecrans Ave Gardena, CA 90247",323-814-2400,https://fishboneseafood.com/,https://docs.google.com/spreadsheets/d/18w-0RBhwBBlXDN9kRV9DVSCAGSCjtHb9K0Pq2YBv18U/htmlview,33.90127,-118.2925167,fishbone-express-gardena-gardena,true,wYheabDSsJPcp6c-r8rqhg
flavors from afar,Flavors From Afar,Restaurants,Restaurants,,"1046 S Fairfax Los Angeles, CA 90019",714-623-9420,https://www.flavorsfromafar.co/,https://docs.google.com/spreadsheets/d/18w-0RBhwBBlXDN9kRV9DVSCAGSCjtHb9K0Pq2YBv18U/htmlview,34.056837,-118.364192,flavors-from-afar-los-angeles-2,true,-YE-UnethM8jbYFWl9ktRQ
fleurs et sel,Fleurs Et Sel,Restaurants,Restaurants,,,,https://www.lamag.com/lalifeandstyle/hdym-fleurs-et-sel/,https://docs.google.com/spreadsheets/d/18w-0RBhwBBlXDN9kRV9DVSCAGSCjtHb9K0Pq2YBv18U/htmlview,,,,false,
flowerboy project,Flowerboy Project,Restaurants,Restaurants,"A cafe, flower shop and boutique by designer Sean Knibb. Open for takeout. 824 Lincoln Blvd., Venice,","824 Lincoln Blvd Los Angeles, CA 90291",310-452-3900,https://www.flowerboyproject.com/,https://www.latimes.com/lifestyle/story/2020-06-12/heres-a-list-of-black-owned-coffee-shops-in-la,33.99922,-118.46291,flowerboy-project-los-angeles,true,fMv_najQZnX7vk1A8wJUhg
foster bros,Foster Bros,Restaurants,Restaurants,,"205 S Willowbrook Ave Compton, CA 90220",,https://www.instagram.com/fosterbros_/,https://docs.google.com/spreadsheets/d/18w-0RBhwBBlXDN9kRV9DVSCAGSCjtHb9K0Pq2YBv18U/htmlview,,,,false,
fourfortyfour,FourFortyFour Catering & Curation,Restaurants,Restaurants,,"Los Angeles, CA 91604",818-312-7671,https://www.fourfortyfourcatering.com/,https://docs.google.com/spreadsheets/d/18w-0RBhwBBlXDN9kRV9DVSCAGSCjtHb9K0Pq2YBv18U/htmlview,34.13813,-118.38979,fourfortyfour-catering-and-curation-los-angeles,true,SkIp4oDILCtOHWHPqi9nBw
fraiche signatures,Fraiche Signatures,Restaurants,Restaurants,,"4807 W Adams Blvd Los Angeles, CA 90016",,https://www.instagram.com/fraiche_signatures/,https://docs.google.com/spreadsheets/d/18w-0RBhwBBlXDN9kRV9DVSCAGSCjtHb9K0Pq2YBv18U/htmlview,,,,false,
freaky fruit pizza,Freaky Fruit Pizza,Restaurants,Restaurants,,"8301 S Western Los Angeles, CA 90047",323-922-8628,https://freakyfruitpizza.com/,https://docs.google.com/spreadsheets/d/18w-0RBhwBBlXDN9kRV9DVSCAGSCjtHb9K0Pq2YBv18U/htmlview,33.96348,-118.30933,freaky-fruit-pizza-los-angeles,true,rs0vKG61xe7H72tV7OEcQQ
fresh and meaty burgers,Fresh and Meaty Burgers,Restaurants,Restaurants,"Ste. 107, Carson, (424) 536-3046,","3016 W Florence Ave Los Angeles, CA 90043",323-751-2247,https://www.bestturkeyburgerlosangeles.com/,https://www.latimes.com/food/story/2020-05-31/black-owned-restaurants-in-los-angeles,33.974257,-118.326177,fresh-and-meaty-burgers-los-angeles-4,true,MAGs82NAzkPQJquNFsvcoA
fresh ethiopian restaurant,Fresh Ethiopian Restaurant,Restaurants,Restaurants,"Fresh Ethiopian Restaurant, 1580 Centinela Ave., Inglewood, (310) 674-1545","1580 Centinela Ave Inglewood, CA 90302",310-674-1545,,https://www.latimes.com/food/story/2020-05-31/black-owned-restaurants-in-los-angeles,33.9771147,-118.3665458,fresh-ethiopian-restaurant-inglewood,true,7OLtBz1kZ7eUn7emCGIlgw
fresh out the fire pizza,Fresh Out The Fire Pizza,Restaurants,Restaurants,,"3746 Monteith Dr View Park-Windsor Hills, CA 90043",,,https://docs.google.com/spreadsheets/d/18w-0RBhwBBlXDN9kRV9DVSCAGSCjtHb9K0Pq2YBv18U/htmlview,,,,false,
fun diggity,Fun-Diggity Funnel Cakes,Restaurants,Restaurants,,"222 E 120th St Los Angeles, CA 90061",424-242-5799,https://fundiggity.business.site/,https://docs.google.com/spreadsheets/d/18w-0RBhwBBlXDN9kRV9DVSCAGSCjtHb9K0Pq2YBv18U/htmlview,33.92368123,-118.2695584,fun-diggity-funnel-cakes-los-angeles,true,0qpf7fMLi8WfBpD_rW-0Uw
funculo,Funculo,Restaurants,Restaurants,,"724 S Spring St Los Angeles, CA 90014",213-325-3013,https://downtownla.com/go/funculo,https://docs.google.com/spreadsheets/d/18w-0RBhwBBlXDN9kRV9DVSCAGSCjtHb9K0Pq2YBv18U/htmlview,34.043793,-118.252639,funculo-los-angeles-2,true,wBl2kT_V44-Y7frfdtOusg
fyrebird,Fyrebird,Restaurants,Restaurants,"Fyre Bird Chicken, 15717 Crenshaw Blvd., Gardena, (424) 269-1943","15717 Crenshaw Blvd Gardena, CA 90249",424-269-1943,,https://www.latimes.com/food/story/2020-05-31/black-owned-restaurants-in-los-angeles,33.88773,-118.3271,fyrebird-gardena,true,HR7FGvAoPEf2JRPn5aNsIA
georgia's restaurant,Georgia's Restaurant,Restaurants,Restaurants,,"4101 McGowen St Ste 155 Long Beach, CA 90808",562-420-5637,https://www.georgias-restaurant.com/,https://docs.google.com/spreadsheets/d/18w-0RBhwBBlXDN9kRV9DVSCAGSCjtHb9K0Pq2YBv18U/htmlview,33.83067069,-118.1447325,georgias-restaurant-long-beach,true,lNjp6zRJ20T858cyZeRlmw
gram's mission bbq,Gram's Mission BBQ,Restaurants,Restaurants,,"3527 Main St Riverside, CA 92501",951-782-8219,http://gramsmissionbbq.com,https://docs.google.com/spreadsheets/d/18w-0RBhwBBlXDN9kRV9DVSCAGSCjtHb9K0Pq2YBv18U/htmlview,33.98474,-117.37278,grams-mission-bbq-riverside,true,FyVjW7ja75YztmyOULb9Ow
granny's kitchen southern soul food,Granny's Kitchen,Restaurants,Restaurants,,"5440 S Central Ave Los Angeles, CA 90011",323-231-2141,https://www.yelp.com/biz/grannys-kitchen,https://docs.google.com/spreadsheets/d/18w-0RBhwBBlXDN9kRV9DVSCAGSCjtHb9K0Pq2YBv18U/htmlview,33.99309755,-118.2563043,grannys-kitchen-los-angeles,true,QWtzUp4zLqzjA_jxLbvDvA
green grotto juice bar,Green Grotto Juice Bar,Restaurants,Restaurants,,"541 S Spring St #133, Los Angeles, CA 90013",323-701-2220,https://www.yelp.com/biz/green-grotto-juice,https://docs.google.com/spreadsheets/d/18w-0RBhwBBlXDN9kRV9DVSCAGSCjtHb9K0Pq2YBv18U/htmlview,,,,false,
grilled fraiche hyde park los-angeles,Grilled Fraiche - Hyde Park,Restaurants,Restaurants,"Grilled Fraiche, 5800 West Blvd., Los Angeles, (323) 389-8888,","5800 W Blvd Los Angeles, CA 90043",323-389-8888,https://www.instagram.com/grilledfraiche/,https://www.latimes.com/food/story/2020-05-31/black-owned-restaurants-in-los-angeles,33.9887,-118.33492,grilled-fraiche-hyde-park-los-angeles,true,KGN01qTZPTOl2zvpfEgREA
hall's krispy krunchy,Hall's Krispy Krunchy Chicken,Restaurants,Restaurants,,"1600 W Slauson Ave Unit I31 Los Angeles, CA 90047",323-305-3059,https://www.krispykrunchy.com/locations/,https://docs.google.com/spreadsheets/d/18w-0RBhwBBlXDN9kRV9DVSCAGSCjtHb9K0Pq2YBv18U/htmlview,33.98848019,-118.3049562,halls-krispy-krunchy-chicken-los-angeles,true,s7eH-HbbKLYHsuUA9C-Lbw
hambone's smokehouse,Hambone's Bar And Grill,Restaurants,Restaurants,"Hambone’s Smokehouse, 9825 Belmont St., Bellflower, (562) 920-5200,","9825 Belmont St Bellflower, CA 90706",562-920-5200,http://hambonesbarandgrill.com/,https://www.latimes.com/food/story/2020-05-31/black-owned-restaurants-in-los-angeles,33.88380432,-118.1241989,hambones-bar-and-grill-bellflower,true,zo8tSQyimTdV_5yp5RoU9g
handy's smoke house delicacies,Handy's Smoke House Meats & Delicacies,Restaurants,Restaurants,,"4149 Long Beach Blvd Long Beach, CA 90807",562-424-8300,http://www.handyssmokehousemeats.com/,https://docs.google.com/spreadsheets/d/18w-0RBhwBBlXDN9kRV9DVSCAGSCjtHb9K0Pq2YBv18U/htmlview,33.833766,-118.1894949,handys-smoke-house-meats-and-delicacies-long-beach,true,3-zKo_PtOumBujRMaDBreg
happy ice,Happy Ice,Restaurants,Restaurants,,"7324 Melrose Ave Los Angeles, CA 90046",215-800-3965,https://happyicela.com/,https://docs.google.com/spreadsheets/d/18w-0RBhwBBlXDN9kRV9DVSCAGSCjtHb9K0Pq2YBv18U/htmlview,34.083387,-118.349637,happy-ice-los-angeles,true,Zv6pQP12TsaqfQfLBHhOiQ
harold and belle's,Harold & Belle's,Restaurants,Restaurants,,"2920 W Jefferson Blvd Los Angeles, CA 90018",323-735-9023,https://haroldandbelles.com/,https://docs.google.com/spreadsheets/d/18w-0RBhwBBlXDN9kRV9DVSCAGSCjtHb9K0Pq2YBv18U/htmlview,34.0254551,-118.327966,harold-and-belles-los-angeles-5,true,5oBl4waF3RT2b218OFTL4A
harriet's cheesecakes unlimited,Harriet's Cheesecakes Unlimited,Restaurants,Restaurants,"Harriet’s Cheesecakes Unlimited, 1515 Centinela Ave., Inglewood, (310) 419-2259","1515 Centinela Ave Inglewood, CA 90302",310-419-2259,,https://www.latimes.com/food/story/2020-05-31/black-owned-restaurants-in-los-angeles,33.97664,-118.36552,harriets-cheesecakes-unlimited-inglewood,true,WBZTSRrLka7HtjN2cR7cBw
harun coffee,Harun Coffee,Restaurants,Restaurants,"is a coffee shop, gallery and select shop in Leimert Park. The gallery hosts art shows, and the shop features goods from local and artist-owned brands, which are also found in its online shop. Open for takeout and delivery. 4336 Degnan Blvd., Leimert Park,","4336 Degnan Blvd Los Angeles, CA 90008",323-815-9944,https://harunintl.com/,https://www.latimes.com/lifestyle/story/2020-06-12/heres-a-list-of-black-owned-coffee-shops-in-la,34.00485993,-118.3314079,harun-coffee-los-angeles-2,true,rR1f_EbT3JCHvTfZvQp7Tw
hawkins house of burgers,Hawkins House of Burgers,Restaurants,Restaurants,"11603 Slater St., Los Angeles, (323) 563-1129,","11603 Slater St Los Angeles, CA 90059",323-563-1129,http://www.hawkinsburgers.com/,https://www.latimes.com/food/story/2020-05-31/black-owned-restaurants-in-los-angeles,33.9292549,-118.2522808,hawkins-house-of-burgers-los-angeles,true,BA7TnabiZhm4S5Jv7jbkxA
hilltop coffee + kitchen,Hilltop Coffee and Kitchen,Restaurants,Restaurants,"Open for take-out and delivery. Two locations: 4427 W. Slauson Ave., View Park-Windsor Hills, and 170 N. La Brea Ave., Inglewood,","4427 W Slauson Ave Los Angeles, CA 90043",323-815-9833,https://www.findyourhilltop.com/,https://www.latimes.com/lifestyle/story/2020-06-12/heres-a-list-of-black-owned-coffee-shops-in-la,33.98904,-118.35298,hilltop-coffee-and-kitchen-los-angeles,true,EfEfFksahPqRsC0iNBseKA
hilltop's jamaican market & restaurant,Hilltop's Jamaican Market & Restaurant A1,Restaurants,Restaurants,,"1061 E Holt Ave Pomona, CA 91767",909-629-6407,http://www.hilltopsjamaican.com/,https://docs.google.com/spreadsheets/d/18w-0RBhwBBlXDN9kRV9DVSCAGSCjtHb9K0Pq2YBv18U/htmlview,34.063219,-117.729832,hilltops-jamaican-market-and-restaurant-a1-pomona,true,wbcZWF1k1AEc6poSEih5IA
honey's kettle,Honey's Kettle Fried Chicken,Restaurants,Restaurants,"Honey’s Kettle, 9537 Culver Blvd., Culver City, (310) 202-5453,","9537 Culver Blvd Culver City, CA 90232",310-202-5453,http://honeyskettle.com/,https://www.latimes.com/food/story/2020-05-31/black-owned-restaurants-in-los-angeles,34.023227,-118.395477,honeys-kettle-fried-chicken-culver-city,true,YZUvm7_lBnbdhR80jUU1lw
hot and cool cafe,Hot and Cool Cafe,Restaurants,Restaurants,"Founded by chief brewer Anthony Jolly, it has coffee, juice, smoothies, and food with vegan options. Open for personal local delivery within 3 miles and takeout. They are also on Grubhub and Seamless. 4331 Degnan Blvd., Leimert Park,","4331 Degnan Blvd Los Angeles, CA 90008",323-903-6449,https://hotandcoolcafe.com/,https://www.latimes.com/lifestyle/story/2020-06-12/heres-a-list-of-black-owned-coffee-shops-in-la,34.00509722,-118.3316949,hot-and-cool-cafe-los-angeles,true,DkHP7ysDXTks2JCBBNqIaA
hotville chicken,Hotville Chicken,Restaurants,Restaurants,"Hotville, 4070 Marlton Ave., Los Angeles, (323) 792-4835,","4070 Marlton Ave Los Angeles, CA 90008",323-792-4835,https://www.hotvillechicken.com/,https://www.latimes.com/food/story/2020-05-31/black-owned-restaurants-in-los-angeles,34.010694,-118.338889,hotville-chicken-los-angeles-2,true,znoEE4b4_AnbjejPehM8Mw
industry cafe + jazz,Industry Cafe & Jazz,Restaurants,Restaurants,,"6039 Washington Blvd Culver City, CA 90232",310-202-6633,https://industrycafela.com/,https://docs.google.com/spreadsheets/d/18w-0RBhwBBlXDN9kRV9DVSCAGSCjtHb9K0Pq2YBv18U/htmlview,34.031731,-118.3774227,industry-cafe-and-jazz-culver-city,true,OziyrYcQhJ7akX8FODEO-g
island flavors caribbean cuisine,Island Flavors Caribbean Cuisine,Restaurants,Restaurants,"Island Flavors Caribbean Cuisine,","Los Angeles, CA 91401",818-477-8076,https://www.instagram.com/islandflavors_cc/,https://www.latimes.com/food/story/2020-05-31/black-owned-restaurants-in-los-angeles,34.18194962,-118.4421692,island-flavors-caribbean-cuisine-los-angeles-2,true,uSG-pnkYNsFA1HsraYmsUg
island reggae kitchen,Island Reggae Kitchen,Restaurants,Restaurants,"Island Reggae Kitchen, 14426 Crenshaw Blvd., Gardena, (310) 515-6869","14426 Crenshaw Blvd Gardena, CA 90249",310-515-6869,,https://www.latimes.com/food/story/2020-05-31/black-owned-restaurants-in-los-angeles,33.900135,-118.326103,island-reggae-kitchen-gardena,true,tL-0iDVdeO0cGjMCB1S2xw
island to table patty hut,Island To Table Patty Hut,Restaurants,Restaurants,"Island to Table Patty Hut,","788 S Grand Ave Los angeles, CA 90017",949-300-1733,https://ittpattyhut.com/,https://www.latimes.com/food/story/2020-05-31/black-owned-restaurants-in-los-angeles,34.0456943,-118.2572291,island-to-table-patty-hut-los-angeles,true,AVZbTyOV0_0P0cDZWHzPZw
j&j's bbq & fish,J & J's BBQ & Fish,Restaurants,Restaurants,,"751 Indian Hill Blvd Pomona, CA 91767",909-865-6700,https://jjbbqfish.com/,https://docs.google.com/spreadsheets/d/18w-0RBhwBBlXDN9kRV9DVSCAGSCjtHb9K0Pq2YBv18U/htmlview,34.0662478,-117.7197705,j-and-js-bbq-and-fish-pomona,true,MVhWr_LnIpAkSKN26Va2Sw
j. looney's,J Looney's,Restaurants,Restaurants,,"5204 Orange Ave Long Beach, CA 90805",562-612-3355,https://www.yelp.com/biz/j-looneys-long-beach-2,https://docs.google.com/spreadsheets/d/18w-0RBhwBBlXDN9kRV9DVSCAGSCjtHb9K0Pq2YBv18U/htmlview,33.8502401,-118.1766781,j-looneys-long-beach-2,true,Qgg4Kstd50mYzwa74Ejv5A
jackfruit cafe,Jackfruit Cafe,Restaurants,Restaurants,,"11419 Santa Monica Blvd Ste K23 Los Angeles, CA 90025",424-346-1443,https://jackfruitcafe.com/,https://docs.google.com/spreadsheets/d/18w-0RBhwBBlXDN9kRV9DVSCAGSCjtHb9K0Pq2YBv18U/htmlview,34.04586538,-118.4514792,jackfruit-cafe-los-angeles,true,sew0crT9WoZ0I11Mg6Msaw
jaliz east african cuisine,Jaliz Cuisine of East Africa,Restaurants,Restaurants,,"14747 Kittridge St Van Nuys, CA 91405",818-571-2188,http://jalizcuisine.com/,https://docs.google.com/spreadsheets/d/18w-0RBhwBBlXDN9kRV9DVSCAGSCjtHb9K0Pq2YBv18U/htmlview,34.1910499,-118.4546841,jaliz-cuisine-of-east-africa-van-nuys-2,true,Tr4E7gyf2UUNkk3piQFdGg
jamafo jamaican food xpress,JamaFo Jamaican Food Xpress,Restaurants,Restaurants,"JamaFo Jamaican Food Xpress, Canoga Park, (747) 999-5980,","22213 Sherman Way Los Angeles, CA 91303",747-201-2122,https://www.jamafoxpress.com/,https://www.latimes.com/food/story/2020-05-31/black-owned-restaurants-in-los-angeles,34.2013301,-118.6108433,jamafo-jamaican-food-xpress-los-angeles,true,TDog48y1kP-YysqRqChF2Q
jamz creamery,JAMZ Creamery,Restaurants,Restaurants,,"231 E Manchester Blvd Inglewood, CA 90301",424-351-8217,https://jamzcreamery.com/,https://docs.google.com/spreadsheets/d/18w-0RBhwBBlXDN9kRV9DVSCAGSCjtHb9K0Pq2YBv18U/htmlview,33.9619049,-118.3528045,jamz-creamery-inglewood,true,QjhDHm8-oiFxpZUe4kwfEw
janga by derrick's jamaican cuisine,Janga by Derrick's Jamaican Cuisine,Restaurants,Restaurants,,"3850 Main St Culver City, CA 90232",424-603-4843,http://jangabyderricks.com/,https://docs.google.com/spreadsheets/d/18w-0RBhwBBlXDN9kRV9DVSCAGSCjtHb9K0Pq2YBv18U/htmlview,34.02475,-118.39419,janga-by-derricks-jamaican-cuisine-culver-city,true,cQEHEFFIGvz-ozNsPawe6Q
jay bee's,Jay Bee's Bar-B-Q,Restaurants,Restaurants,"Jay Bee’s, 15911 S. Avalon Blvd., Gardena, (310) 532-1064","15911 S Avalon Blvd Gardena, CA 90247",310-532-1064,,https://www.latimes.com/food/story/2020-05-31/black-owned-restaurants-in-los-angeles,33.88702891,-118.2655083,jay-bees-bar-b-q-gardena-3,true,Grc73Z51ag4m0i7_dsw_QA
johnsonbrothersbbq,Johnsonbrothersbbq,Restaurants,Restaurants,,"1710 E Compton Blvd Compton, CA 90221",310-933-8803,https://www.johnsonbrothersbbq.com/,https://docs.google.com/spreadsheets/d/18w-0RBhwBBlXDN9kRV9DVSCAGSCjtHb9K0Pq2YBv18U/htmlview,,,,false,
jordan's hot dogs,Jordan's Hot Dogs,Restaurants,Restaurants,,"5960 Crenshaw Blvd Los Angeles, CA 90043",323-299-3647,https://jordanshotdogsla.com/,https://docs.google.com/spreadsheets/d/18w-0RBhwBBlXDN9kRV9DVSCAGSCjtHb9K0Pq2YBv18U/htmlview,33.9860575,-118.3305262,jordans-hot-dogs-los-angeles-2,true,fws4v77EgFfDR5OudCZLWg
jr's barbeque,JR's Barbeque,Restaurants,Restaurants,,"3055 La Cienega Blvd Culver City, CA 90232",310-837-6838,http://jrs-bbq.com/,https://docs.google.com/spreadsheets/d/18w-0RBhwBBlXDN9kRV9DVSCAGSCjtHb9K0Pq2YBv18U/htmlview,34.0306015,-118.3724213,jrs-barbeque-culver-city,true,aFNJKGZvRxAEZ-MKGP9LmA
juice-c-juice,Juice-C-Juice,Restaurants,Restaurants,,"940 E Dominguez Ste K Carson, CA 90746",310-324-8444,https://www.gotjuices.com/,https://docs.google.com/spreadsheets/d/18w-0RBhwBBlXDN9kRV9DVSCAGSCjtHb9K0Pq2YBv18U/htmlview,33.839751,-118.258178,juice-c-juice-carson-2,true,LaInugE4uBAukO8vaU-mYw
just turkey,Just Turkey,Restaurants,Restaurants,,"3340 La Cienega Blvd Los Angeles, CA 90016",323-591-0277,http://justturkeyla.com/,https://docs.google.com/spreadsheets/d/18w-0RBhwBBlXDN9kRV9DVSCAGSCjtHb9K0Pq2YBv18U/htmlview,34.02692,-118.37158,just-turkey-los-angeles-2,true,9GHopT8nFKqztDYHacbK-A
karuba's yardy kitchen,Karuba's Yardy Kitchen,Restaurants,Restaurants,"Karuba’s Yardy Kitchen, 1300 Centinela Ave., Inglewood, (424) 312-1055","1300 Centinela Ave Unit 103 Inglewood, CA 90302",424-312-1055,,https://www.latimes.com/food/story/2020-05-31/black-owned-restaurants-in-los-angeles,33.97689,-118.36175,karubas-yardy-kitchen-inglewood-2,true,3h2iPFqxDyKsBQVsh6aVOw
keith's kettle corn,Keith's Kettle Corn,Restaurants,Restaurants,,"200 W Foothill Blvd Ste 3 Azusa, CA 91702",626-804-7999,https://www.keithskettlecorn.com/,https://docs.google.com/spreadsheets/d/18w-0RBhwBBlXDN9kRV9DVSCAGSCjtHb9K0Pq2YBv18U/htmlview,34.13312383,-117.909293,keiths-kettle-corn-azusa,true,SJRvri7VcA-x6YCiRrl-uQ
ken's ice cream,Ken's Ice Cream Parlor,Restaurants,Restaurants,,"18511 S Avalon Blvd Carson, CA 90746",310-324-7704,http://kensicecream.net/,https://docs.google.com/spreadsheets/d/18w-0RBhwBBlXDN9kRV9DVSCAGSCjtHb9K0Pq2YBv18U/htmlview,33.862053,-118.267129,kens-ice-cream-parlor-carson,true,-6b3XFuY23Ajt85EkSS28g
kenny q's bbq,Kenny's Q BAR-B-QUE and More,Restaurants,Restaurants,,"11010 S Prairie Ave Inglewood, CA 90303",424-312-1105,https://www.kennysqbbq.com/,https://docs.google.com/spreadsheets/d/18w-0RBhwBBlXDN9kRV9DVSCAGSCjtHb9K0Pq2YBv18U/htmlview,33.9355801,-118.3437751,kennys-q-bar-b-que-and-more-inglewood,true,sVBT1p5jhtIF-EXiJ9t6Aw
kick ass vegans,Kick Ass Vegans,Restaurants,Restaurants,,"1253 Mira Valle St Corona, CA 92879",,https://www.kickassvegans.com/,https://docs.google.com/spreadsheets/d/18w-0RBhwBBlXDN9kRV9DVSCAGSCjtHb9K0Pq2YBv18U/htmlview,,,,false,
king kone ice cream,King Kone Ice Cream,Restaurants,Restaurants,"King Kone, (323) 208-1403,","Los Angeles, CA 90048",323-208-1403,http://www.kingkonela.com/,https://www.latimes.com/food/story/2020-05-31/black-owned-restaurants-in-los-angeles,34.07619476,-118.3751373,king-kone-ice-cream-los-angeles,true,zToXnZNrH21xH-YtSttwqw
kings deli,Kings Deli,Restaurants,Restaurants,"Kings Deli, 109 N. Pass Ave., Burbank, (818) 561-4405,","109 N Pass Ave Burbank, CA 91505",818-561-4405,https://www.kingsdeli.co/,https://www.latimes.com/food/story/2020-05-31/black-owned-restaurants-in-los-angeles,34.149642,-118.3430673,kings-deli-burbank,true,g9RR96iB3v0Du2iy3U4IOA
la buns,LA Buns,Restaurants,Restaurants,"LA Buns, 8237 2nd St., Downey, (562) 923-9038","8237 2nd St Downey, CA 90241",562-923-9038,,https://www.latimes.com/food/story/2020-05-31/black-owned-restaurants-in-los-angeles,33.94144936,-118.1330898,la-buns-downey,true,QaQdCJn0CfNL3Ej6Dn_EcQ
la grind coffee & tea bar,L A Grind Coffee & Tea Bar,Restaurants,Restaurants,,"Los Angeles, CA 90011",323-475-7001,https://lagrindcoffeeandteabar.com/,https://docs.google.com/spreadsheets/d/18w-0RBhwBBlXDN9kRV9DVSCAGSCjtHb9K0Pq2YBv18U/htmlview,34.00566,-118.25849,l-a-grind-coffee-and-tea-bar-los-angeles-2,true,wlOcnV1R0P4_8RWGDbo3AA
la louisanne,La Louisanne,Restaurants,Restaurants,,"5812 Overhill Dr Los Angeles, CA 90043",323-293-5073,http://www.lalouisannela.com/,https://docs.google.com/spreadsheets/d/18w-0RBhwBBlXDN9kRV9DVSCAGSCjtHb9K0Pq2YBv18U/htmlview,33.98825,-118.35385,la-louisanne-los-angeles-3,true,3vgNw2PEIM8GE5ltbRiyow
ladie kakes,Ladie Kakes,Restaurants,Restaurants,,"Long Beach, CA 90802",626-935-9293,https://ladiekakes.square.site/,https://docs.google.com/spreadsheets/d/18w-0RBhwBBlXDN9kRV9DVSCAGSCjtHb9K0Pq2YBv18U/htmlview,33.7415316,-118.1941785,ladie-kakes-long-beach-2,true,yNQtJoR9dFqryBV8jS0PcQ
lalibela,Lalibela Ethiopian Restaurant,Restaurants,Restaurants,"Lalibela, 1025 S. Fairfax Ave., Los Angeles, (323) 965-1025,","1025 S Fairfax Ave Los Angeles, CA 90019",323-965-1025,https://www.lalibelala.com/,https://www.latimes.com/food/story/2020-05-31/black-owned-restaurants-in-los-angeles,34.0571,-118.36465,lalibela-ethiopian-restaurant-los-angeles,true,cG2QWy4XDW4V-l4ufEKYnQ
larayia's bodega,LaRayia's Bodega,Restaurants,Restaurants,,"2713 W 6th St Los Angeles, CA 90057",818-357-9114,https://larayias-bodega.business.site/,https://docs.google.com/spreadsheets/d/18w-0RBhwBBlXDN9kRV9DVSCAGSCjtHb9K0Pq2YBv18U/htmlview,34.06277,-118.28166,larayias-bodega-los-angeles,true,ewPQtax6421vXtzuJK2uAg
leberry bakery,Lêberry Bakery & Donut,Restaurants,Restaurants,,"445 E Colorado Blvd Pasadena, CA 91101",626-993-9898,https://www.leberrybakery.com,https://loveandloathingla.com/list-of-black-owned-businesses-in-la/,34.14600091,-118.1411811,lêberry-bakery-and-donut-pasadena-2,true,9rpaHcIRkFDmjd3GeVTUVw
lee esther's creole & cajun cooking,Lee Esther's Creole and Cajun Cooking,Restaurants,Restaurants,,"830 1/2 E Ave Q6 Palmdale, CA 93550",661-266-0000,https://www.leeesthers.com,https://docs.google.com/spreadsheets/d/18w-0RBhwBBlXDN9kRV9DVSCAGSCjtHb9K0Pq2YBv18U/htmlview,34.58185,-118.114657,lee-esthers-creole-and-cajun-cooking-palmdale,true,zxc8ayqGfJouHTCaYH-K8g
lee's caribbean restaurant,Lee's Caribbean Restaurant,Restaurants,Restaurants,,"1041 S Prairie Ave Inglewood, CA 90301",310-419-6550,,https://docs.google.com/spreadsheets/d/18w-0RBhwBBlXDN9kRV9DVSCAGSCjtHb9K0Pq2YBv18U/htmlview,33.9497,-118.344685,lees-caribbean-restaurant-inglewood,true,keWTGeh1QWvc7s3SlX1ORA
lee's market,Lee's Market,Restaurants,Restaurants,,"1908 E 110th St Los Angeles, CA 90059",323-566-3549,https://www.facebook.com/Leesmarketcatering/,https://docs.google.com/spreadsheets/d/18w-0RBhwBBlXDN9kRV9DVSCAGSCjtHb9K0Pq2YBv18U/htmlview,33.9349861,-118.2387314,lees-market-los-angeles-2,true,2055FMPpOWsjtP197FXTNw
les sisters,Les Sisters Southern Kitchen & BBQ,Restaurants,Restaurants,"Les Sisters, 21818 Devonshire St., Chatsworth, (818) 998-0755,","21818 Devonshire St Chatsworth, CA 91311",818-998-0755,http://www.lessisters.com/,https://www.latimes.com/food/story/2020-05-31/black-owned-restaurants-in-los-angeles,34.25695,-118.6045,les-sisters-southern-kitchen-and-bbq-chatsworth,true,iX6eWMdAMkwa0oXPQrrdow
lettuce feast,Lettuce Feast,Restaurants,Restaurants,,"Los Angeles, CA 90001",424-261-3659,https://www.lettucefeast.online/,https://docs.google.com/spreadsheets/d/18w-0RBhwBBlXDN9kRV9DVSCAGSCjtHb9K0Pq2YBv18U/htmlview,33.97853,-118.2497,lettuce-feast-los-angeles-2,true,ACm6CB7VI0d-K5qNzEODhg
little amsterdam coffee,Little Amsterdam Coffee Shop,Restaurants,Restaurants,,"1412 S Redondo Blvd Los Angeles, CA 90019",323-452-9124,https://littleamsterdamcoffee.net/,https://docs.google.com/spreadsheets/d/18w-0RBhwBBlXDN9kRV9DVSCAGSCjtHb9K0Pq2YBv18U/htmlview,34.0475,-118.3493,little-amsterdam-coffee-shop-los-angeles,true,VXZ7Qe6VEZzHCObHYz432Q
little belize restaurant,Little Belize Restaurant,Restaurants,Restaurants,,"217 E Nutwood St Inglewood, CA 90301",310-674-0696,https://littlebelizerestaurant.com/,https://docs.google.com/spreadsheets/d/18w-0RBhwBBlXDN9kRV9DVSCAGSCjtHb9K0Pq2YBv18U/htmlview,33.9606049,-118.3530446,little-belize-restaurant-inglewood-2,true,eY4AevP-0Am5nS_VVkbHsA
little kingston jamaican restaurant,Little Kingston Jamaican Restaurant,Restaurants,Restaurants,,"4716 W Slauson Ave Los Angeles, CA 90056",323-295-5596,https://www.instagram.com/jamaicaonthego/,https://docs.google.com/spreadsheets/d/18w-0RBhwBBlXDN9kRV9DVSCAGSCjtHb9K0Pq2YBv18U/htmlview,33.9880618,-118.3592158,little-kingston-jamaican-restaurant-los-angeles,true,Uciy4a2wODubfq24noRRag
little red hen coffee shop,The Little Red Hen Coffee Shop,Restaurants,Restaurants,,"2697 Fair Oaks Ave Altadena, CA 91001",626-791-1614,https://little-red-hen-coffee-shop.hub.biz/,https://docs.google.com/spreadsheets/d/18w-0RBhwBBlXDN9kRV9DVSCAGSCjtHb9K0Pq2YBv18U/htmlview,34.19185,-118.14897,the-little-red-hen-coffee-shop-altadena,true,Z0scVOff_55I86zCqzq3Dw
logan's gardens,Logan's Gardens,Restaurants,Restaurants,"Gardener to the stars Jimmy Williams and his son, Logan, grow and sell more than 1,000 varieties of heirloom edible plants Wednesdays and Saturdays at the Santa Monica Farmers Market and Sundays at the Hollywood Farmers Market. instagram.com/logansgardens","2640 Main St, Santa Monica, CA 90404",,https://www.instagram.com/logansgardens,https://www.latimes.com/lifestyle/story/2020-06-03/black-owned-businesses-in-los-angeles,,,,false,
lotus vegan,Lotus Vegan,Restaurants,Restaurants,,"4715 Lankershim Blvd North Hollywood, CA 91602",818-760-8088,http://lotusveganla.com/,https://docs.google.com/spreadsheets/d/18w-0RBhwBBlXDN9kRV9DVSCAGSCjtHb9K0Pq2YBv18U/htmlview,34.1561199,-118.3694993,lotus-vegan-north-hollywood,true,8r4YzjW1zWTdeB6QnQ6kCg
lou the french on the block,Lou The French On The Block,Restaurants,Restaurants,,"4007 W Riverside Dr Ste A Burbank, CA 91505",747-241-8205,https://www.louthefrenchontheblock.com/,https://docs.google.com/spreadsheets/d/18w-0RBhwBBlXDN9kRV9DVSCAGSCjtHb9K0Pq2YBv18U/htmlview,34.15216064,-118.3432846,lou-the-french-on-the-block-burbank-2,true,iPDCWuv_Y61LuLs5aQofpg
louisiana charlie's,Louisiana Charlie's,Restaurants,Restaurants,,"429 Shoreline Village Dr Long Beach, CA 90802",562-432-6737,http://www.louisianacharlies.com/,https://docs.google.com/spreadsheets/d/18w-0RBhwBBlXDN9kRV9DVSCAGSCjtHb9K0Pq2YBv18U/htmlview,33.760095,-118.191808,louisiana-charlies-long-beach,true,hUVej-XbpffKfZyGqIcvxg
m & t donuts,M & T Donuts,Restaurants,Restaurants,,"1601 E 103rd St Ste 5 Los Angeles, CA 90002",323-567-5710,https://m-and-t-donuts.square.site/,https://docs.google.com/spreadsheets/d/18w-0RBhwBBlXDN9kRV9DVSCAGSCjtHb9K0Pq2YBv18U/htmlview,33.94385913,-118.2452288,m-and-t-donuts-los-angeles,true,hQxhMZ0uFfC5mg3L-DBwrw
m'dears,M'Dear's Bakery & Bistro,Restaurants,Restaurants,,"7717 S Western Ave Los Angeles, CA 90047",323-759-2020,https://www.mdears.net/,https://docs.google.com/spreadsheets/d/18w-0RBhwBBlXDN9kRV9DVSCAGSCjtHb9K0Pq2YBv18U/htmlview,33.969506,-118.309089,mdears-bakery-and-bistro-los-angeles,true,rUs4IStrR8d8FnFDqNABfA
mack & jane,Mack & Jane,Restaurants,Restaurants,,"Los Angeles, CA 91601",,https://www.mackandjane.com/,https://docs.google.com/spreadsheets/d/18w-0RBhwBBlXDN9kRV9DVSCAGSCjtHb9K0Pq2YBv18U/htmlview,34.16475677,-118.3724823,mack-and-jane-los-angeles,true,Ag8Qw0yWClzzLnGGFoPHOA
main kitchen cafe,Main Kitchen Cafe,Restaurants,Restaurants,,"17013 Chatsworth St Granada Hills, CA 91344",747-300-2433,https://www.mainkitchencafe.com/,https://docs.google.com/spreadsheets/d/18w-0RBhwBBlXDN9kRV9DVSCAGSCjtHb9K0Pq2YBv18U/htmlview,34.264995,-118.50279,main-kitchen-cafe-granada-hills,true,p_6tlBkhdYKCeDPQRvJhqg
mama's chicken and market,Mama's Chicken and Market,Restaurants,Restaurants,,"2510 W Slauson Ave Los Angeles, CA 90043",323-292-9696,http://www.mamaschicken.name/,https://docs.google.com/spreadsheets/d/18w-0RBhwBBlXDN9kRV9DVSCAGSCjtHb9K0Pq2YBv18U/htmlview,33.98883,-118.32101,mamas-chicken-and-market-los-angeles,true,EAcTJ5qWCnZEFOp5Nfvxfw
mar's caribbean gardens,Mar's Caribbean Gardens,Restaurants,Restaurants,"Mar’s Caribbean Gardens, 14008 Crenshaw Blvd., Gardena, (310) 323-5000,","14008 Crenshaw Blvd Gardena, CA 90249",310-323-5000,http://marscaribbean.com/,https://www.latimes.com/food/story/2020-05-31/black-owned-restaurants-in-los-angeles,33.90444,-118.32616,mars-caribbean-gardens-gardena-3,true,m7xE8182HY9XiZ5IV-2UsA
mardi gras tuesday sherman oaks,Mardi Gras Tuesday,Restaurants,Restaurants,"Fat Tuesday, 14543 Ventura Blvd., Sherman Oaks, (818) 208-9838,","14543 Ventura Blvd Sherman Oaks, CA 91403",818-208-9838,https://www.eatatfattuesday.com/,https://www.latimes.com/food/story/2020-05-31/black-owned-restaurants-in-los-angeles,34.15148,-118.45017,mardi-gras-tuesday-sherman-oaks,true,YJbhvSNlSCgSK3k_W44rOA
matthews home style cooking,Matthews Home Style Cooking,Restaurants,Restaurants,,"2222 W Rosecrans Ave Gardena, CA 90249",310-817-5496,https://matthewshomestylecooking.business.site/,https://docs.google.com/spreadsheets/d/18w-0RBhwBBlXDN9kRV9DVSCAGSCjtHb9K0Pq2YBv18U/htmlview,33.90154,-118.31859,matthews-home-style-cooking-gardena-3,true,WFCkuSxsM9q0lsAVL9aWBA
meals by genet,Meals by Genet,Restaurants,Restaurants,,"1053 S Fairfax Ave Los Angeles, CA 90019",323-938-9304,http://mealsbygenetla.com/,https://docs.google.com/spreadsheets/d/18w-0RBhwBBlXDN9kRV9DVSCAGSCjtHb9K0Pq2YBv18U/htmlview,34.05671,-118.36483,meals-by-genet-los-angeles,true,0mDwFahV2qgGYM2sL1m0Pw
mel's fish shack,Mel's Fish Shack,Restaurants,Restaurants,,"4524 W Jefferson Blvd Los Angeles, CA 90016",323-732-6357,https://melsfishshack.com/,https://docs.google.com/spreadsheets/d/18w-0RBhwBBlXDN9kRV9DVSCAGSCjtHb9K0Pq2YBv18U/htmlview,34.02536113,-118.3459583,mels-fish-shack-los-angeles,true,uMar62it3cUFxPRuXbYoMw
melkam ethiopian restaurant,Melkam Ethiopian Restaurant,Restaurants,Restaurants,,"3182 W Pico Blvd Los Angeles, CA 90019",323-734-3182,https://www.yelp.com/biz/melkam-ethiopian,https://docs.google.com/spreadsheets/d/18w-0RBhwBBlXDN9kRV9DVSCAGSCjtHb9K0Pq2YBv18U/htmlview,34.04715523,-118.3111654,melkam-ethiopian-restaurant-los-angeles,true,w8_O2BaWR_2ZB0w7iLGtFQ
melnificent wingz,Melnificent Wingz,Restaurants,Restaurants,,"12021 Allegheny St Sun Valley, CA 91352",818-378-4825,https://www.facebook.com/melnificentwingz/,https://docs.google.com/spreadsheets/d/18w-0RBhwBBlXDN9kRV9DVSCAGSCjtHb9K0Pq2YBv18U/htmlview,,,,false,
merkato,Merkato Ethiopian Restaurant & Market,Restaurants,Restaurants,,"1036 S Fairfax Ave Los Angeles, CA 90019",323-935-1775,https://www.yelp.com/biz/merkato-ethiopian,https://docs.google.com/spreadsheets/d/18w-0RBhwBBlXDN9kRV9DVSCAGSCjtHb9K0Pq2YBv18U/htmlview,34.05701,-118.36403,merkato-ethiopian-restaurant-and-market-los-angeles,true,Nw7_WZNbyh_EbckVAlzGAA
messob ethiopian restaurant,Messob Ethiopian Restaurant,Restaurants,Restaurants,,"1041 S Fairfax Ave Los Angeles, CA 90019",323-938-8827,https://www.messob.com/,https://docs.google.com/spreadsheets/d/18w-0RBhwBBlXDN9kRV9DVSCAGSCjtHb9K0Pq2YBv18U/htmlview,34.05699,-118.36469,messob-ethiopian-restaurant-los-angeles,true,fEFkf7jYjaWfyil0DjOuIw
milk + brookies,milk + brookies,Restaurants,Restaurants,,"Los Angeles, CA 90036",213-536-7043,http://www.milkandbrookies.com/,https://docs.google.com/spreadsheets/d/18w-0RBhwBBlXDN9kRV9DVSCAGSCjtHb9K0Pq2YBv18U/htmlview,34.0211224,-118.3964665,milk-brookies-los-angeles-4,true,W9eecsALpdCB03jMxpjglg
mingles tea bar,Mingles Tea Bar,Restaurants,Restaurants,"Mingles Tea Bar, 8443 Crenshaw Blvd., Inglewood, (424) 704-2777,","8443 Crenshaw Blvd Inglewood, CA 90305",424-704-2777,https://minglesteabar.com/,https://www.latimes.com/food/story/2020-05-31/black-owned-restaurants-in-los-angeles,33.96203,-118.32783,mingles-tea-bar-inglewood-2,true,IBKcCJfozUg-0IwphlcCqg
mo better burgers,Mo Better Burgers South Bay,Restaurants,Restaurants,"Mo Better Burgers, 12734 Crenshaw Blvd., Hawthorne, (323) 531-1749,","12734 Crenshaw Blvd Hawthorne, CA 90250",323-531-1749,https://mo-better-burgers-south-bay.business.site/,https://www.latimes.com/food/story/2020-05-31/black-owned-restaurants-in-los-angeles,33.91674,-118.32616,mo-better-burgers-south-bay-hawthorne,true,8m6wEOnP6W8G4-daUVQhkA
mom's burgers,Mom's Burgers,Restaurants,Restaurants,"Mom’s Burgers, 336 W. Alondra Blvd., Compton, (310) 632-6622","336 W Alondra Blvd Compton, CA 90220",310-632-6622,,https://www.latimes.com/food/story/2020-05-31/black-owned-restaurants-in-los-angeles,33.88825,-118.22761,moms-burgers-compton,true,7o81P4o4mfo3HmFEqdBicw
mom's haus,Moms Haus,Restaurants,Restaurants,,"14062 Vanowen St Van Nuys, CA 91405",818-786-1373,,https://docs.google.com/spreadsheets/d/18w-0RBhwBBlXDN9kRV9DVSCAGSCjtHb9K0Pq2YBv18U/htmlview,34.1938051,-118.4395014,moms-haus-van-nuys,true,wcsd41E9wE9-dLnh9GZufA
mr fries man,Mr Fries Man,Restaurants,Restaurants,,"14800 S Western Ave Ste 108 Gardena, CA 90249",424-292-3616,https://www.mrfriesman.com/,https://docs.google.com/spreadsheets/d/18w-0RBhwBBlXDN9kRV9DVSCAGSCjtHb9K0Pq2YBv18U/htmlview,33.89696162,-118.3085831,mr-fries-man-gardena-2,true,vQVVW_gHvvVR-mKwIpKjjA
ms. b's m&m soul food,Ms. B's M & M's Soul Food,Restaurants,Restaurants,,"4549 W Imperial Hwy Inglewood, CA 90304",310-330-2697,https://www.msbsmandmsoulfoodrestaurant.com/,https://docs.google.com/spreadsheets/d/18w-0RBhwBBlXDN9kRV9DVSCAGSCjtHb9K0Pq2YBv18U/htmlview,33.9311431,-118.356536,ms-bs-m-and-ms-soul-food-inglewood,true,-LzG9eWCiFRvJEQ8fHhL4Q
munchie madness,El Chato Taco Truck,Restaurants,Restaurants,,"5300 W Olympic Blvd Los Angeles, CA 90019",323-202-6936,https://www.instagram.com/_munchiemadness/,https://docs.google.com/spreadsheets/d/18w-0RBhwBBlXDN9kRV9DVSCAGSCjtHb9K0Pq2YBv18U/htmlview,34.0571251,-118.346074,el-chato-taco-truck-los-angeles-2,true,bvpxd7o3RZtz50YLpDsgLA
munchies diner,Munchies Vegan Diner,Restaurants,Restaurants,,"313 N Bush St Santa Ana, CA 92701",657-699-3076,https://www.munchiesvegandiner.com/,https://docs.google.com/spreadsheets/d/18w-0RBhwBBlXDN9kRV9DVSCAGSCjtHb9K0Pq2YBv18U/htmlview,33.7476586,-117.866475,munchies-vegan-diner-santa-ana,true,hsjFiSrHSKxnC4K_V6DAkA
my fish stop,My Fish Stop,Restaurants,Restaurants,,"14843 Burbank Blvd Sherman Oaks, CA 91411",888-469-9980,https://www.myfishstop.com/,https://docs.google.com/spreadsheets/d/18w-0RBhwBBlXDN9kRV9DVSCAGSCjtHb9K0Pq2YBv18U/htmlview,34.1722449,-118.4567853,my-fish-stop-sherman-oaks,true,aUJHqtvhj2jZ7BPSyYc7TQ
my place cafe,My Place Cafe,Restaurants,Restaurants,,"2057 N Los Robles Ave Unit 10 Pasadena, CA 91104",626-797-9255,https://www.yelp.com/biz/my-place-cafe,https://docs.google.com/spreadsheets/d/18w-0RBhwBBlXDN9kRV9DVSCAGSCjtHb9K0Pq2YBv18U/htmlview,34.181231,-118.142285,my-place-cafe-pasadena,true,SiBQ3DTl2xa4pfNhlR2jWw
my two cents,My Two Cents,Restaurants,Restaurants,,"5583 W Pico Blvd Los Angeles, CA 90019",323-879-9881,http://mytwocentsla.com/,https://docs.google.com/spreadsheets/d/18w-0RBhwBBlXDN9kRV9DVSCAGSCjtHb9K0Pq2YBv18U/htmlview,34.0498186,-118.3596124,my-two-cents-los-angeles-3,true,30jrTz8vh1xSXdtXMvt-mA
natraliart jamaican restaurant,Natraliart Jamaican Restaurant & Market,Restaurants,Restaurants,,"3426 W Washington Blvd Los Angeles, CA 90018",323-737-9277,https://www.natraliartrestaurant.com/,https://docs.google.com/spreadsheets/d/18w-0RBhwBBlXDN9kRV9DVSCAGSCjtHb9K0Pq2YBv18U/htmlview,34.03955,-118.32226,natraliart-jamaican-restaurant-and-market-los-angeles,true,5W-9Iq_q3VXsB0nkA0TVrQ
nimbus coffee,Nimbus Coffee,Restaurants,Restaurants,"A Harry Potter-inspired cafe with themed coffee drinks and decor. Open for takeout. 1115 S Hope St., downtown Los Angeles.","1115 S Hope St Los Angeles, CA 90015",213-441-7309,,https://www.latimes.com/lifestyle/story/2020-06-12/heres-a-list-of-black-owned-coffee-shops-in-la,34.041887,-118.263719,nimbus-coffee-los-angeles-2,true,ehKEcixcAJl7BZz8dbTMtQ
nita's corn catering,Nita's Corn & Nacho,Restaurants,Restaurants,,"Southern California, CA 90001",909-572-4510,,https://docs.google.com/spreadsheets/d/18w-0RBhwBBlXDN9kRV9DVSCAGSCjtHb9K0Pq2YBv18U/htmlview,33.97908,-118.25009,nitas-corn-and-nacho-southern-california-9,true,-ME54NTvScXfHSuRcoCQRA
nkechi african cafe,Nkechi African Cafe,Restaurants,Restaurants,,"2717 W Manchester Blvd Inglewood, CA 90305",323-541-1265,https://www.yelp.com/biz/nkechi-african-cafe,https://docs.google.com/spreadsheets/d/18w-0RBhwBBlXDN9kRV9DVSCAGSCjtHb9K0Pq2YBv18U/htmlview,33.96025,-118.3236,nkechi-african-cafe-inglewood,true,yK7bCnKLSr7x6je7DniuGA
northtown bistro,Northtown Bistro,Restaurants,Restaurants,,,562-333-1858,https://www.facebook.com/pg/northtownbistro,https://docs.google.com/spreadsheets/d/18w-0RBhwBBlXDN9kRV9DVSCAGSCjtHb9K0Pq2YBv18U/htmlview,,,,false,
o'nells comfort kitchen,O'Nells Comfort Kitchen,Restaurants,Restaurants,,"2295 Long Beach Blvd Ste C Long Beach, CA 90806",562-283-3434,https://www.yelp.com/biz/o-nells-comfort,https://docs.google.com/spreadsheets/d/18w-0RBhwBBlXDN9kRV9DVSCAGSCjtHb9K0Pq2YBv18U/htmlview,33.79872,-118.18978,o-nells-comfort-kitchen-long-beach,true,6ec5_VwSpeV90h2PfSk5MA
obet & del's coffee,Obet and Del's Coffee,Restaurants,Restaurants,,"5233 Hollywood Blvd Los Angeles, CA 90027",213-770-0133,https://www.yelp.com/biz/obet-and-dels,https://docs.google.com/spreadsheets/d/18w-0RBhwBBlXDN9kRV9DVSCAGSCjtHb9K0Pq2YBv18U/htmlview,34.10199242,-118.3045691,obet-and-dels-coffee-los-angeles,true,dSxf3St-ruvBwjt-p3EQHQ
oh my burger,Oh My Burger,Restaurants,Restaurants,,"2142 W El Segundo Blvd Gardena, CA 90249",310-756-6522,https://www.ohmyburgerla.com/,https://docs.google.com/spreadsheets/d/18w-0RBhwBBlXDN9kRV9DVSCAGSCjtHb9K0Pq2YBv18U/htmlview,33.91621446,-118.3168825,oh-my-burger-gardena-3,true,iJrQpn0tlqtNKovcJLMgUg
one876 caribbean restaurant,One876 Caribbean Restaurant,Restaurants,Restaurants,"One876 Caribbean Restaurant, 20869 Lassen St., Chatsworth, (818) 678-9252,","20869 Lassen St Chatsworth, CA 91311",818-678-9252,https://one876caribbeanrestaurant.com/,https://www.latimes.com/food/story/2020-05-31/black-owned-restaurants-in-los-angeles,34.25032867,-118.5881857,one876-caribbean-restaurant-chatsworth,true,RTr4C1AcCtHXbsfgm_7LOQ
onil chibás events,Onil Chibas Events,Restaurants,Restaurants,,"1717 E Washington Blvd Pasadena, CA 91104",626-818-3963,https://www.chibasevents.com/wonderful,https://docs.google.com/spreadsheets/d/18w-0RBhwBBlXDN9kRV9DVSCAGSCjtHb9K0Pq2YBv18U/htmlview,34.16926833,-118.115085,onil-chibas-events-pasadena,true,P28ulOCwyK4JTwcABbnKcQ
orleans & york,Orleans & York Deli,Restaurants,Restaurants,,"333 S Spring St Los Angeles, CA 90013",213-687-0400,http://orleansandyorkdeli.com,https://loveandloathingla.com/list-of-black-owned-businesses-in-la/,34.0495262,-118.2478561,orleans-and-york-deli-los-angeles-3,true,iWS7Olqaw4hyWvMLIwJ9mw
ounjé la,Ounjé La,Restaurants,Restaurants,,,,,https://docs.google.com/spreadsheets/d/18w-0RBhwBBlXDN9kRV9DVSCAGSCjtHb9K0Pq2YBv18U/htmlview,,,,false,
ozi's kitchen,Ozi'S Kitchen,Restaurants,Restaurants,,"1403 W 11th St Los Angeles, CA 90015",,,https://docs.google.com/spreadsheets/d/18w-0RBhwBBlXDN9kRV9DVSCAGSCjtHb9K0Pq2YBv18U/htmlview,,,,false,
papa john's pizza,Papa John's Pizza,Restaurants,Restaurants,,"7150 Beverly Blvd Los Angeles, CA 90036",323-964-8181,https://locations.papajohns.com/united-states,https://docs.google.com/spreadsheets/d/18w-0RBhwBBlXDN9kRV9DVSCAGSCjtHb9K0Pq2YBv18U/htmlview,34.07588,-118.34567,papa-johns-pizza-los-angeles-20,true,2dIEEMnvDxcNp87sZjSA1A
park bench grill,Park Bench Grill,Restaurants,Restaurants,,"2470 N Lake Ave Altadena, CA 91001",626-797-2740,https://www.facebook.com/ParkBenchGrill/,https://docs.google.com/spreadsheets/d/18w-0RBhwBBlXDN9kRV9DVSCAGSCjtHb9K0Pq2YBv18U/htmlview,34.1878122,-118.1313946,park-bench-grill-altadena-2,true,RVQEzPFgOkD64vMuCAzydw
parrains soul food,Parrains Soulfood,Restaurants,Restaurants,"Parrain’s Soul Food, 7908 Alondra Blvd., Paramount, (562) 634-6050,","7906 Alondra Blvd Paramount, CA 90723",562-634-6050,https://www.facebook.com/parrainssoulfood/,https://www.latimes.com/food/story/2020-05-31/black-owned-restaurants-in-los-angeles,33.8891139,-118.1612179,parrains-soulfood-paramount,true,k0xm8ObO0Q6UMAjhusZfSw
pasadena fish market,Pasadena Fish Market,Restaurants,Restaurants,,"181 E Orange Grove Blvd Pasadena, CA 91103",626-792-9233,https://www.yelp.com/biz/pasadena-fish-market,https://docs.google.com/spreadsheets/d/18w-0RBhwBBlXDN9kRV9DVSCAGSCjtHb9K0Pq2YBv18U/htmlview,34.15804,-118.1469,pasadena-fish-market-pasadena,true,pi3MC9BfBHG3LkUVQoM29A
pastry by jazymne,Pastry By Jazymne,Restaurants,Restaurants,,,,,https://docs.google.com/spreadsheets/d/18w-0RBhwBBlXDN9kRV9DVSCAGSCjtHb9K0Pq2YBv18U/htmlview,,,,false,
patria coffee,Patria Coffee Roasters,Restaurants,Restaurants,,"108 N Alameda St E Compton, CA 90221",323-513-4865,https://www.patriacoffee.com/,https://www.latimes.com/lifestyle/story/2020-06-12/heres-a-list-of-black-owned-coffee-shops-in-la,33.896412,-118.219653,patria-coffee-roasters-compton-2,true,gCuDrOJPUEWDfCfGfrzKDA
pepper's jamaican cuisine,Pepper's Jamaican-Belizean Cuisine,Restaurants,Restaurants,,"2166 W Slauson Ave Los Angeles, CA 90047",323-389-8053,,https://docs.google.com/spreadsheets/d/18w-0RBhwBBlXDN9kRV9DVSCAGSCjtHb9K0Pq2YBv18U/htmlview,33.9890834,-118.3169874,peppers-jamaican-belizean-cuisine-los-angeles,true,QFWm3xFKlIbrchMl_c-1IQ
perry's joint,Perry's Joint,Restaurants,Restaurants,"Perry’s Joint, 2051 Lincoln Ave., Pasadena (626) 798-4700,","2051 Lincoln Ave Pasadena, CA 91103",626-798-4700,https://perrysjoint.com/,https://www.latimes.com/food/story/2020-05-31/black-owned-restaurants-in-los-angeles,34.1810763,-118.1598049,perrys-joint-pasadena,true,f2eQfOofWFEKaFQKoxahog
phat & juicy burgers,Phat & Juicy Burgers,Restaurants,Restaurants,,"1580 Centinela Ave Ste 4 Inglewood, CA 90302",310-673-4003,https://www.yelp.com/biz/phat-and-juicy-burgers,https://docs.google.com/spreadsheets/d/18w-0RBhwBBlXDN9kRV9DVSCAGSCjtHb9K0Pq2YBv18U/htmlview,33.9771156,-118.3665466,phat-and-juicy-burgers-inglewood,true,Fu4ZG19uf4O9HM31Bglb7g
phat birds,Phat Birds,Restaurants,Restaurants,,"3705 W Sunset Blvd Los Angeles, CA 90026",323-253-3220,https://phatbirds.com/,https://docs.google.com/spreadsheets/d/18w-0RBhwBBlXDN9kRV9DVSCAGSCjtHb9K0Pq2YBv18U/htmlview,34.09077,-118.277853,phat-birds-los-angeles-6,true,nulCVICot_FRHx5T_qI7pw
phatdaddy's,Phat Daddy's,Restaurants,Restaurants,,"2312 1/2 W 48th St Los Angeles, CA 90043",323-792-4208,https://www.facebook.com/phatdaddyss/,https://docs.google.com/spreadsheets/d/18w-0RBhwBBlXDN9kRV9DVSCAGSCjtHb9K0Pq2YBv18U/htmlview,33.999867,-118.31887,phat-daddys-los-angeles-3,true,ASMkpZeVswZXkkoWG5HSMw
phillips bar-b-que,Phillips Bar B Que,Restaurants,Restaurants,"Phillips Bar-B-Que, 2619 Crenshaw Blvd., Los Angeles, (323) 731-4772","1517 Centinela Ave Inglewood, CA 90302",310-412-7135,,https://www.latimes.com/food/story/2020-05-31/black-owned-restaurants-in-los-angeles,33.9767641,-118.3655114,phillips-bar-b-que-inglewood-5,true,1WkYibAohA05AjfX7mfXGw
pizza of venice,Pizza Of Venice,Restaurants,Restaurants,,"2545 N Fair Oaks Ave Altadena, CA 91001",626-765-9636,https://www.pizzaofvenice.com/,https://docs.google.com/spreadsheets/d/18w-0RBhwBBlXDN9kRV9DVSCAGSCjtHb9K0Pq2YBv18U/htmlview,34.1892934,-118.1500072,pizza-of-venice-altadena-2,true,es02_N22TpOZ7QQ5izkyGw
plate of hue,Plate Of Hue,Restaurants,Restaurants,,,323-205-5283,https://www.facebook.com/pg/plateofhue,https://docs.google.com/spreadsheets/d/18w-0RBhwBBlXDN9kRV9DVSCAGSCjtHb9K0Pq2YBv18U/htmlview,,,,false,
pop belli deli,Pop Belli Deli,Restaurants,Restaurants,,"13911 Van Ness Ave Gardena, CA 90249",310-516-2128,https://www.yelp.com/biz/pop-belli-deli,https://docs.google.com/spreadsheets/d/18w-0RBhwBBlXDN9kRV9DVSCAGSCjtHb9K0Pq2YBv18U/htmlview,33.906123,-118.31811,pop-belli-deli-gardena-2,true,x8GBMnlzMERCaaZrpFuDDw
popcorn heaven,Popcornopolis,Restaurants,Restaurants,,"1000 Universal City Dr Ste 188 Universal City, CA 91608",818-506-9333,http://www.popcornheavenca.com/,https://docs.google.com/spreadsheets/d/18w-0RBhwBBlXDN9kRV9DVSCAGSCjtHb9K0Pq2YBv18U/htmlview,34.13623012,-118.355316,popcornopolis-universal-city,true,nbrJdtejFU2TyGLRHERqSA
poppy + rose,Poppy + Rose,Restaurants,Restaurants,,"765 Wall St Los Angeles, CA 90014",213-995-7799,https://www.poppyandrosela.com/,https://docs.google.com/spreadsheets/d/18w-0RBhwBBlXDN9kRV9DVSCAGSCjtHb9K0Pq2YBv18U/htmlview,34.04067,-118.2500946,poppy-rose-los-angeles,true,NlT-6hFP0_6hPo36AW2lIA
post & beam,Post & Beam,Restaurants,Restaurants,,"3767 Santa Rosalia Dr Los Angeles, CA 90008",323-299-5599,https://postandbeamla.com/,https://docs.google.com/spreadsheets/d/18w-0RBhwBBlXDN9kRV9DVSCAGSCjtHb9K0Pq2YBv18U/htmlview,34.009861,-118.3390427,post-and-beam-los-angeles,true,3dmkjDqnsp__V5kxsq6rOA
pucker up lemonade company,Pucker Up Lemonade Company,Restaurants,Restaurants,,"723 E Compton Blvd Compton, CA 90221",562-507-8177,https://puckeruplemonadecompany.business.site/,https://docs.google.com/spreadsheets/d/18w-0RBhwBBlXDN9kRV9DVSCAGSCjtHb9K0Pq2YBv18U/htmlview,33.896188,-118.215319,pucker-up-lemonade-company-compton,true,e33OkFvPEvjh6VVAiKoDKA
queen of sheba ethiopian restaurant,Queen of Sheba Ethiopian restaurant,Restaurants,Restaurants,,"630 N La Brea Ave Inglewood, CA 90302",424-331-5626,https://www.queenshebainglewood.com/,https://docs.google.com/spreadsheets/d/18w-0RBhwBBlXDN9kRV9DVSCAGSCjtHb9K0Pq2YBv18U/htmlview,33.97133,-118.35687,queen-of-sheba-ethiopian-restaurant-inglewood,true,BLFxZfAJZDDBl2Y5lv2jrw
r & r soul food restaurant,R & R Soul Food Restaurant,Restaurants,Restaurants,,"18427 Avalon Blvd Carson, CA 90746",310-715-6716,https://www.randrsoulfood.com/,https://docs.google.com/spreadsheets/d/18w-0RBhwBBlXDN9kRV9DVSCAGSCjtHb9K0Pq2YBv18U/htmlview,33.86225756,-118.2665491,r-and-r-soul-food-restaurant-carson,true,jmuHtdZGmytkvO6R5s7z4Q
r kitchen soul food,R Kitchen Soul Food,Restaurants,Restaurants,,"5253 Paramount Blvd Lakewood, CA 90712",424-296-5320,,https://docs.google.com/spreadsheets/d/18w-0RBhwBBlXDN9kRV9DVSCAGSCjtHb9K0Pq2YBv18U/htmlview,33.85276528,-118.1602171,r-kitchen-soul-food-lakewood,true,If90S5RIsrPuAJy-r8zcQg
rahel,Rahel Ethiopian Vegan Cuisine,Restaurants,Restaurants,"Rahel, 1047 S. Fairfax Ave., Los Angeles, (323)-937-8401,","1047 S Fairfax Ave Los Angeles, CA 90019",323-937-8401,http://rahelvegancuisine.com/,https://www.latimes.com/food/story/2020-05-31/black-owned-restaurants-in-los-angeles,34.05687,-118.36475,rahel-ethiopian-vegan-cuisine-los-angeles,true,_P9Z5biFHuCFDIvKI83W_A
ranch side cafe,Ranch Side Cafe,Restaurants,Restaurants,"Ranch Side Cafe, 11355 Foothill Blvd., Sylmar, (818) 834-0031,","11355 Foothill Blvd Sylmar, CA 91342",818-834-0031,http://www.ranchsidecafe.com/,https://www.latimes.com/food/story/2020-05-31/black-owned-restaurants-in-los-angeles,34.2763413,-118.3787874,ranch-side-cafe-sylmar,true,fzLtFDsHZSuDC36Tlw_3DQ
red's flavor table,Red's Flavor Table Breakfast Take Out,Restaurants,Restaurants,,"254 N Market St Inglewood, CA 90301",424-331-5000,https://www.redsflavortable.com/,https://docs.google.com/spreadsheets/d/18w-0RBhwBBlXDN9kRV9DVSCAGSCjtHb9K0Pq2YBv18U/htmlview,33.96652,-118.35077,reds-flavor-table-breakfast-take-out-inglewood,true,t3j1DCHK_Twkln_vceTAcQ
revolutionario north african tacos,Revolutionario: North African Tacos,Restaurants,Restaurants,,"1436 W Jefferson Blvd Ste 70 Los Angeles, CA 90007",424-223-3526,http://revolutionario.com/menu/,https://docs.google.com/spreadsheets/d/18w-0RBhwBBlXDN9kRV9DVSCAGSCjtHb9K0Pq2YBv18U/htmlview,34.02523,-118.29857,revolutionario-north-african-tacos-los-angeles,true,_lrLfLy3e2jr-zGigfFW4A
ribtown bbq,RibTown B.B.Q,Restaurants,Restaurants,,"2125 W Jefferson Blvd Los Angeles, CA 90018",,http://ribtownbbq.com/,https://docs.google.com/spreadsheets/d/18w-0RBhwBBlXDN9kRV9DVSCAGSCjtHb9K0Pq2YBv18U/htmlview,34.02559314,-118.3185535,ribtown-b-b-q-los-angeles,true,ZFgPuBh0Ao4Z9vX7-z6-Cw
robert earl's bbq,Robert Earl's BBQ,Restaurants,Restaurants,,"703 E Artesia Blvd Long Beach, CA 90805",562-726-1116,http://robertearlsbbq.com/,https://docs.google.com/spreadsheets/d/18w-0RBhwBBlXDN9kRV9DVSCAGSCjtHb9K0Pq2YBv18U/htmlview,33.87478217,-118.1836787,robert-earls-bbq-long-beach,true,zUh6nKm0LMhdt6NNe8HVaw
rosalind's ethiopian restaurant,Rosalind's Ethiopian Restaurant,Restaurants,Restaurants,,"1044 S Fairfax Ave Los Angeles, CA 90019",323-936-2486,https://rosalindsla.com,https://docs.google.com/spreadsheets/d/18w-0RBhwBBlXDN9kRV9DVSCAGSCjtHb9K0Pq2YBv18U/htmlview,34.05696608,-118.3643637,rosalinds-ethiopian-restaurant-los-angeles,true,w-3gkMSx6il1Y6k9N2e3qA
roscoe's house of chicken & waffles,Roscoe's House of Chicken & Waffles,Restaurants,Restaurants,,"5006 W Pico Blvd Los Angeles, CA 90019",323-934-4405,https://www.roscoeschickenandwaffles.com/,https://docs.google.com/spreadsheets/d/18w-0RBhwBBlXDN9kRV9DVSCAGSCjtHb9K0Pq2YBv18U/htmlview,34.0474472,-118.3462296,roscoes-house-of-chicken-and-waffles-los-angeles,true,57h63V30fRwAP6tm5Rs7Sg
royal gourmet cookies,Royal Gourmet Cookies,Restaurants,Restaurants,,"Long Beach, CA 90807",562-208-5802,https://royalgourmetcookies.com/,https://docs.google.com/spreadsheets/d/18w-0RBhwBBlXDN9kRV9DVSCAGSCjtHb9K0Pq2YBv18U/htmlview,33.83259583,-118.1840134,royal-gourmet-cookies-long-beach,true,cxyFr2ziuXHHMzDRmdlQ9w
rusty pot cafe,Rusty Pot Cafe,Restaurants,Restaurants,,"324 S Market St Inglewood, CA 90301",310-412-5901,https://rustypotcafe.com/,https://docs.google.com/spreadsheets/d/18w-0RBhwBBlXDN9kRV9DVSCAGSCjtHb9K0Pq2YBv18U/htmlview,33.95991,-118.3517951,rusty-pot-cafe-inglewood,true,w2GujMgLyd25SVTnCV7_Gw
sal's gumbo shack,Sal's Gumbo Shack,Restaurants,Restaurants,,"6148 Long Beach Blvd Long Beach, CA 90805",562-422-8100,http://www.salsgumboshack.com/,https://docs.google.com/spreadsheets/d/18w-0RBhwBBlXDN9kRV9DVSCAGSCjtHb9K0Pq2YBv18U/htmlview,33.86661,-118.20011,sals-gumbo-shack-long-beach,true,5Eppu_Md9SWJ1Iu1JVKcGw
sattdown jamaican grill,Sattdown Jamaican Grill,Restaurants,Restaurants,,"11320 Ventura Blvd Studio City, CA 91604",818-766-3696,http://sattdownjamaicangrill.com/,https://docs.google.com/spreadsheets/d/18w-0RBhwBBlXDN9kRV9DVSCAGSCjtHb9K0Pq2YBv18U/htmlview,34.1401319,-118.3767751,sattdown-jamaican-grill-studio-city,true,JpS5OKx_2mNTGAJcaFgL1g
savage tacos truck,Savage Tacos Truck,Restaurants,Restaurants,,"Los Angeles, CA 90012",310-940-2727,,https://docs.google.com/spreadsheets/d/18w-0RBhwBBlXDN9kRV9DVSCAGSCjtHb9K0Pq2YBv18U/htmlview,34.06048,-118.2425,savage-tacos-truck-los-angeles,true,9OaBKbfkyegjQx52VwdVkA
say cheese,Say Cheese,Restaurants,Restaurants,"Say Cheese, 2800 Hyperion Ave., Los Angeles, (323) 665-0545,","2800 Hyperion Ave Los Angeles, CA 90027",323-665-0545,http://www.saycheeselosangeles.com/,https://www.latimes.com/food/story/2020-05-31/black-owned-restaurants-in-los-angeles,34.10813522,-118.2714386,say-cheese-los-angeles,true,bhyaGTuJDfJcbSp7Mj-pJw
scv fish market,SCV Fish Market,Restaurants,Restaurants,,"26234 Bouquet Canyon Rd Santa Clarita, CA 91350",661-481-0330,https://scvfishmarket.net/,https://docs.google.com/spreadsheets/d/18w-0RBhwBBlXDN9kRV9DVSCAGSCjtHb9K0Pq2YBv18U/htmlview,34.4211638,-118.5416247,scv-fish-market-santa-clarita-2,true,ixk3Ka-JpJafZ2jwy80F-Q
shad's new cali catering,Shad's New Cali Catering,Restaurants,Restaurants,"Shad’s New Cali Catering,",,,https://www.instagram.com/shadsnewcalicatering/,https://www.latimes.com/food/story/2020-05-31/black-owned-restaurants-in-los-angeles,,,,false,
shaquille's restaurant,Shaquille’s,Restaurants,Restaurants,,"800 W Olympic Blvd Ste A150 Los Angeles, CA 90015",213-746-7427,https://www.shaquilles.com/,https://docs.google.com/spreadsheets/d/18w-0RBhwBBlXDN9kRV9DVSCAGSCjtHb9K0Pq2YBv18U/htmlview,34.04489,-118.2641735,shaquille-s-los-angeles,true,Evi45sCTHEVUbJ1j_iNGgg
silverback coffee of rwanda,Silverback Coffee of Rwanda,Restaurants,Restaurants,"Founded by Jack Karuletwa, Silverback sources its coffee from farms in Rwanda, where he grew up. A portion of proceeds are donated to Rwandan organizations. The Echo Park location is open for takeout and limited dine-in. 1712 W. Sunset Blvd., Echo Park,","1712 W Sunset Blvd Los Angeles, CA 90026",,https://silverbackcoffee.com/,https://www.latimes.com/lifestyle/story/2020-06-12/heres-a-list-of-black-owned-coffee-shops-in-la,34.07724,-118.25897,silverback-coffee-of-rwanda-los-angeles-3,true,eN7TNNuEWe8DiU1hZHDZOA
simply d'licious,Simply D'Licious,Restaurants,Restaurants,,"4641 W Washington Blvd Los Angeles, CA 90016",562-326-6863,https://simplydliciousla.com/,https://docs.google.com/spreadsheets/d/18w-0RBhwBBlXDN9kRV9DVSCAGSCjtHb9K0Pq2YBv18U/htmlview,34.04013099,-118.3407847,simply-d-licious-los-angeles,true,eqLHloMkfzwfLf8GA5wkXQ
simply wholesome,Simply Wholesome,Restaurants,Restaurants,,"4508 W Slauson Ave Los Angeles, CA 90043",323-294-2144,https://www.simplywholesome.com/,https://docs.google.com/spreadsheets/d/18w-0RBhwBBlXDN9kRV9DVSCAGSCjtHb9K0Pq2YBv18U/htmlview,33.9886372,-118.354468,simply-wholesome-los-angeles,true,6DEuqc82zAMe-C4MOLqHcQ
sip & sonder,Sip & Sonder,Restaurants,Restaurants,"Two lawyers, Amanda-Jane Thomas and Shanita Nicholas, became friends and launched Sip and Sonder, an entrepreneurial and creative hub that also houses a coffee house. Open for takeout. 108 S Market St, Inglewood,","108 S Market St Inglewood, CA 90301",,https://www.sipandsonder.com/,https://www.latimes.com/lifestyle/story/2020-06-12/heres-a-list-of-black-owned-coffee-shops-in-la,33.96274,-118.3518551,sip-and-sonder-inglewood,true,uGHIm2xcyKMwVB2c9qmk7g
sky's gourmet tacos,Sky's Gourmet Tacos,Restaurants,Restaurants,,"5303 W Pico Blvd Los Angeles, CA 90019",323-932-6253,https://skystacos.com/mdr,https://docs.google.com/spreadsheets/d/18w-0RBhwBBlXDN9kRV9DVSCAGSCjtHb9K0Pq2YBv18U/htmlview,34.048672,-118.353867,skys-gourmet-tacos-los-angeles,true,O1mZqTsmuDs8vtUhDsvMIA
smakk'd refreshers & teas,Smakk'd Refreshers & Teas,Restaurants,Restaurants,,,424-785-4212,https://www.smakkdrefreshers.com/,https://docs.google.com/spreadsheets/d/18w-0RBhwBBlXDN9kRV9DVSCAGSCjtHb9K0Pq2YBv18U/htmlview,,,,false,
smok n joe's chili,Smok N Joe'S Chili,Restaurants,Restaurants,,,310-817-0112,https://www.smoknjoeschilila.com/,https://docs.google.com/spreadsheets/d/18w-0RBhwBBlXDN9kRV9DVSCAGSCjtHb9K0Pq2YBv18U/htmlview,,,,false,
soul food renaissance,Soul Food Renaissance,Restaurants,Restaurants,,"6617 Cherry Ave Long Beach, CA 90805",562-422-3606,https://soulfoodrenaissance.business.site/,https://docs.google.com/spreadsheets/d/18w-0RBhwBBlXDN9kRV9DVSCAGSCjtHb9K0Pq2YBv18U/htmlview,33.87529,-118.16901,soul-food-renaissance-long-beach,true,zlDEMQ4OT5El_2fQDmKGng
south la cafe,South LA Cafe,Restaurants,Restaurants,"Founded by Joe and Celia Ward-Wallace, who grew up in the area, serves food and coffee in a community hub. 1700 Browning Blvd., Exposition Park,","1700 Browning Blvd Los Angeles, CA 90062",213-260-0633,https://www.southlacafe.com/,https://www.latimes.com/lifestyle/story/2020-06-12/heres-a-list-of-black-owned-coffee-shops-in-la,34.0118793,-118.3089374,south-la-cafe-los-angeles,true,yNNtnin-2Cv-hFt077oODQ
southern girl desserts,Southern Girl Desserts,Restaurants,Restaurants,,"3650 W Martin Luther King Jr Blvd Los Angeles, CA 90008",323-293-2253,https://www.southerngirldesserts.com/,https://docs.google.com/spreadsheets/d/18w-0RBhwBBlXDN9kRV9DVSCAGSCjtHb9K0Pq2YBv18U/htmlview,34.01027009,-118.3371359,southern-girl-desserts-los-angeles-2,true,XGS7TN7YLLW_z-PABERMPw
stevie's creole cafe,Stevie's Creole Cafe,Restaurants,Restaurants,,"5545 W Pico Blvd Los Angeles, CA 90019",323-413-2494,http://www.steviescreolecafe.com/,https://docs.google.com/spreadsheets/d/18w-0RBhwBBlXDN9kRV9DVSCAGSCjtHb9K0Pq2YBv18U/htmlview,34.049526,-118.358656,stevies-creole-cafe-los-angeles,true,EKrVpJqTXBjbbJPgHusibQ
str8 up tacos,Str8 Up Tacos,Restaurants,Restaurants,,"8471 Walker St La Palma, CA 90623",562-455-5436,,https://docs.google.com/spreadsheets/d/18w-0RBhwBBlXDN9kRV9DVSCAGSCjtHb9K0Pq2YBv18U/htmlview,33.83935,-118.03756,str8-up-tacos-la-palma-3,true,yXNZiSDhU47hWfCreKHATw
stuff i eat,Stuff I Eat,Restaurants,Restaurants,,"114 N Market St Inglewood, CA 90301",310-671-0115,https://www.stuffieat.com/,https://docs.google.com/spreadsheets/d/18w-0RBhwBBlXDN9kRV9DVSCAGSCjtHb9K0Pq2YBv18U/htmlview,33.963434,-118.3518651,stuff-i-eat-inglewood,true,3YYDCmLuk4cVhKwWirn-7Q
sugah rush bar,Sugah Rush Bar,Restaurants,Restaurants,,"Los Angeles, CA 90250",424-570-5981,,https://docs.google.com/spreadsheets/d/18w-0RBhwBBlXDN9kRV9DVSCAGSCjtHb9K0Pq2YBv18U/htmlview,33.9093,-118.34251,sugah-rush-bar-los-angeles,true,zQy9f40X1eW8pILZfJqYgQ
sugar and spice,Sugar & Spice Ice Cream,Restaurants,Restaurants,,"15355 Sherman Way Los Angeles, CA 91406",,https://bres-bistro.square.site/,https://docs.google.com/spreadsheets/d/18w-0RBhwBBlXDN9kRV9DVSCAGSCjtHb9K0Pq2YBv18U/htmlview,34.20164164,-118.4682196,sugar-and-spice-ice-cream-los-angeles,true,xuFa-PH_kaMSAzPEhzM0Eg
sugar jones,SugarJones,Restaurants,Restaurants,,"Los Angeles, CA 91607",818-427-6324,http://www.sweetsugarjones.com/,https://docs.google.com/spreadsheets/d/18w-0RBhwBBlXDN9kRV9DVSCAGSCjtHb9K0Pq2YBv18U/htmlview,34.16654205,-118.3998032,sugarjones-los-angeles,true,og8u7Da8MVOVUZJk2r4OWA
sumptuous african restaurant,Sumptuous African Restaurant,Restaurants,Restaurants,,"1170 S La Brea Ave Inglewood, CA 90301",310-654-3145,http://sumptuousafricanrestaurant.com/,https://docs.google.com/spreadsheets/d/18w-0RBhwBBlXDN9kRV9DVSCAGSCjtHb9K0Pq2YBv18U/htmlview,33.9476224,-118.3521243,sumptuous-african-restaurant-inglewood,true,3zFeKsx8De0FX8w1G80rfA
sweet blessings,Sweet Blessings by Cyler,Restaurants,Restaurants,,"14126 Sherman Way Ste 1 Los Angeles, CA 91405",818-285-8437,https://www.sweetblessingsla.com/,https://docs.google.com/spreadsheets/d/18w-0RBhwBBlXDN9kRV9DVSCAGSCjtHb9K0Pq2YBv18U/htmlview,34.20078,-118.44091,sweet-blessings-by-cyler-los-angeles,true,88vUJtAaBgrtZ697E-YcOg
sweet red peach,Sweet Red Peach,Restaurants,Restaurants,,"1035 S Prairie Ave Unit 2 Inglewood, CA 90301",310-671-2253,https://www.sweetredpeach.com/,https://docs.google.com/spreadsheets/d/18w-0RBhwBBlXDN9kRV9DVSCAGSCjtHb9K0Pq2YBv18U/htmlview,33.95026417,-118.3442109,sweet-red-peach-inglewood-2,true,kb2avbx2tcVSjFzgsayd1A
swift cafe,Swift Cafe,Restaurants,Restaurants,,"4279 1/2 Crenshaw Blvd Los Angeles, CA 90008",323-815-4418,https://swift-la.com/,https://docs.google.com/spreadsheets/d/18w-0RBhwBBlXDN9kRV9DVSCAGSCjtHb9K0Pq2YBv18U/htmlview,34.00591,-118.33439,swift-cafe-los-angeles,true,tWkqjOEcoDuh5hvMdRSa7Q
t ‘n irie jerk shack,T ‘N Irie Jerk Shack,Restaurants,Restaurants,,"3209 W 54th St Los Angeles, CA 90037",310-213-7616,https://www.facebook.com/tniriesjerkshack/,https://docs.google.com/spreadsheets/d/18w-0RBhwBBlXDN9kRV9DVSCAGSCjtHb9K0Pq2YBv18U/htmlview,,,,false,
t&t lifestyle,T&T Lifestyle,Restaurants,Restaurants,,"11419 Santa Monica Blvd Los Angeles, CA 90025",310-699-8642,https://www.tandtlifestylelosangeles.com/,https://docs.google.com/spreadsheets/d/18w-0RBhwBBlXDN9kRV9DVSCAGSCjtHb9K0Pq2YBv18U/htmlview,34.0458929,-118.4515097,t-and-t-lifestyle-los-angeles,true,4v8QkvS8a7_WZ7Y4CDLlKA
taco bar,Taco Bar,Restaurants,Restaurants,,"5815 West Pico Blvd Los Angeles, CA 90019",323-433-7000,https://tacobarla.com/,https://docs.google.com/spreadsheets/d/18w-0RBhwBBlXDN9kRV9DVSCAGSCjtHb9K0Pq2YBv18U/htmlview,34.051285,-118.3650733,taco-bar-los-angeles-2,true,2YC93fgtdgMvg2Of_R2w2Q
taco mell,Taco Mell Catering,Restaurants,Restaurants,"Taco Mell, 4326 Crenshaw Blvd., Los Angeles, (844) 822-6635,","4326 Crenshaw Blvd Los Angeles, CA 90008",844-822-6635,http://tacomell.net/,https://www.latimes.com/food/story/2020-05-31/black-owned-restaurants-in-los-angeles,34.0047822,-118.3330114,taco-mell-catering-los-angeles-2,true,OxSCGyF3TFt-dDIKSwzmrg
tacos negros,Tacos Negros,Restaurants,Restaurants,,"5583 W Pico Blvd Los Angeles, CA 90019",,https://www.instagram.com/tacosnegrosla/,https://docs.google.com/spreadsheets/d/18w-0RBhwBBlXDN9kRV9DVSCAGSCjtHb9K0Pq2YBv18U/htmlview,34.049849,-118.359615,tacos-negros-los-angeles,true,ZaL4Sz7sox5FgkfGjTO1FQ
tanjee bakes,Tanjee Bakes,Restaurants,Restaurants,,"Long Beach, CA 90805",310-756-8056,https://www.tanjeebakes.com/,https://docs.google.com/spreadsheets/d/18w-0RBhwBBlXDN9kRV9DVSCAGSCjtHb9K0Pq2YBv18U/htmlview,33.85414505,-118.191597,tanjee-bakes-long-beach,true,-CQAQ9re2LYMxlfuXaHbqQ
texas bbq king,The Original Texas Barbecue King,Restaurants,Restaurants,,"5309 S Vermont Ave Los Angeles, CA 90037",323-750-1064,http://www.texasbbqking.com/,https://docs.google.com/spreadsheets/d/18w-0RBhwBBlXDN9kRV9DVSCAGSCjtHb9K0Pq2YBv18U/htmlview,33.99376,-118.29182,the-original-texas-barbecue-king-los-angeles-2,true,x-8J_huZ4hhe8aVrguy9xQ
the blvd kitchen,BLVD Kitchen,Restaurants,Restaurants,,"13545 Ventura Blvd Los Angeles, CA 91423",844-454-2583,http://www.theblvdkitchen.com/,https://docs.google.com/spreadsheets/d/18w-0RBhwBBlXDN9kRV9DVSCAGSCjtHb9K0Pq2YBv18U/htmlview,34.14787,-118.4285,blvd-kitchen-los-angeles,true,N6bSw52RzOqAdIXPdXYd2Q
the bléu kitchen,The Bléu Kitchen,Restaurants,Restaurants,,"16527 S Harris Ave Compton, CA 90221",,https://www.instagram.com/bleukitchen/?hl=en,https://docs.google.com/spreadsheets/d/18w-0RBhwBBlXDN9kRV9DVSCAGSCjtHb9K0Pq2YBv18U/htmlview,,,,false,
the boujie crab,The Boujie Crab,Restaurants,Restaurants,,"1002 E South St Long Beach, CA 90805",562-612-3311,https://www.theboujiecrab.com/,https://docs.google.com/spreadsheets/d/18w-0RBhwBBlXDN9kRV9DVSCAGSCjtHb9K0Pq2YBv18U/htmlview,33.85999,-118.180847,the-boujie-crab-long-beach,true,q-ZXH1x9mvqJq8aW5XJBrA
the corner 10th's bbq,The Corner 10th’s BBQ,Restaurants,Restaurants,,"3200 E 10th St Long Beach, CA 90804",562-434-2411,https://www.thecorner10th.com/,https://docs.google.com/spreadsheets/d/18w-0RBhwBBlXDN9kRV9DVSCAGSCjtHb9K0Pq2YBv18U/htmlview,33.7788,-118.15426,the-corner-10th-s-bbq-long-beach,true,9qjnljQPkP2W63dShFB92A
the court cafe,The Court Cafe,Restaurants,Restaurants,,"5496 W Centinela Ave Los Angeles, CA 90044",310-431-4969,https://www.yelp.com/biz/the-court-cafe-los-angeles,https://docs.google.com/spreadsheets/d/18w-0RBhwBBlXDN9kRV9DVSCAGSCjtHb9K0Pq2YBv18U/htmlview,33.97678184,-118.3764085,the-court-cafe-los-angeles,true,4zU-v2OxDSosvNpFb37whw
the d.w. cookie co.,The DW Cookie Co,Restaurants,Restaurants,,"18962 Soledad Canyon Rd Santa Clarita, CA 91351",661-505-0781,https://www.yelp.com/biz/the-dw-cookie-co,https://docs.google.com/spreadsheets/d/18w-0RBhwBBlXDN9kRV9DVSCAGSCjtHb9K0Pq2YBv18U/htmlview,34.4156349,-118.4668163,the-dw-cookie-co-santa-clarita-2,true,AKW07_t1VB7bc8Oc7yzYmQ
the gourmet cobbler factory,The Gourmet Cobbler Factory,Restaurants,Restaurants,,"33 N Catalina Ave Pasadena, CA 91106",626-795-1005,https://cobblerfactorypasadena.com/,https://docs.google.com/spreadsheets/d/18w-0RBhwBBlXDN9kRV9DVSCAGSCjtHb9K0Pq2YBv18U/htmlview,34.1463601,-118.1295649,the-gourmet-cobbler-factory-pasadena,true,k_NfezjXaXsTkKpmD0xcxQ
the jerk spot,The Jerk Spot Jamaican Restaurant,Restaurants,Restaurants,,"9006 Venice Blvd Culver City, CA 90232",310-815-1160,http://jerkspotla.com/index.html,https://docs.google.com/spreadsheets/d/18w-0RBhwBBlXDN9kRV9DVSCAGSCjtHb9K0Pq2YBv18U/htmlview,34.02758954,-118.3909683,the-jerk-spot-jamaican-restaurant-culver-city-2,true,0jMeb7Pp8Tqj9YAu0Yi8hA
the juice,The Juice,Restaurants,Restaurants,,"3145 Glendale Blvd Los Angeles, CA 90039",323-644-0250,https://thejuicela.com/,https://docs.google.com/spreadsheets/d/18w-0RBhwBBlXDN9kRV9DVSCAGSCjtHb9K0Pq2YBv18U/htmlview,34.11717,-118.26229,the-juice-los-angeles,true,aZDNqo30EgApA8f9Bcq_iw
the kobbler king,The Kobbler King,Restaurants,Restaurants,,"3622 W Jefferson Blvd Los Angeles, CA 90016",323-731-9286,http://thekobblerking.com/,https://docs.google.com/spreadsheets/d/18w-0RBhwBBlXDN9kRV9DVSCAGSCjtHb9K0Pq2YBv18U/htmlview,34.0254351,-118.3361849,the-kobbler-king-los-angeles,true,pVOI_r7_5lGXNB-Mzmqtlw
the lion's feast,The Lion'S Feast,Restaurants,Restaurants,,,562-375-1051,,https://docs.google.com/spreadsheets/d/18w-0RBhwBBlXDN9kRV9DVSCAGSCjtHb9K0Pq2YBv18U/htmlview,,,,false,
the memphis grill,The Memphis Grill,Restaurants,Restaurants,,"5759 Lankershim Blvd Los Angeles, CA 91601",818-738-9993,https://www.thememphisgrill.com/,https://docs.google.com/spreadsheets/d/18w-0RBhwBBlXDN9kRV9DVSCAGSCjtHb9K0Pq2YBv18U/htmlview,34.17543,-118.38136,the-memphis-grill-los-angeles-2,true,C-X1bZ9feYeZrFhWqvnF8g
the original coley's,The Original Coley’s,Restaurants,Restaurants,,"Los Angeles, CA 90001",818-261-7680,https://www.yelp.com/biz/the-original-coley,https://docs.google.com/spreadsheets/d/18w-0RBhwBBlXDN9kRV9DVSCAGSCjtHb9K0Pq2YBv18U/htmlview,34.20199526,-118.4226181,the-original-coley-s-los-angeles,true,zNBB7hTGBA-kV17qmcJqkA
the original taco petes,The Original Taco Petes,Restaurants,Restaurants,,"12007 S Central Ave, Los Angeles, CA 90059",333-569-5164,https://originaltacopete.com/,https://docs.google.com/spreadsheets/d/18w-0RBhwBBlXDN9kRV9DVSCAGSCjtHb9K0Pq2YBv18U/htmlview,,,,false,
the real cake baker,The Real Cake Baker,Restaurants,Restaurants,,"Los Angeles, CA 90044",323-305-2482,https://www.therealcakebakery.com/,https://docs.google.com/spreadsheets/d/18w-0RBhwBBlXDN9kRV9DVSCAGSCjtHb9K0Pq2YBv18U/htmlview,33.96137,-118.28978,the-real-cake-baker-los-angeles-2,true,CxjKQ0yGti9TJx30euL-Vw
the reverse orangutan,The Reverse Orangutan,Restaurants,Restaurants,,"440 E Rte 66 Glendora, CA 91740",,https://www.thereverseorangutan.com/coffee/,https://docs.google.com/spreadsheets/d/18w-0RBhwBBlXDN9kRV9DVSCAGSCjtHb9K0Pq2YBv18U/htmlview,34.12841,-117.858868,the-reverse-orangutan-glendora,true,9j3Xc3JGNjIrb71F7lcm4g
the sammich shop,The Sammiche Shoppe,Restaurants,Restaurants,,"222 East Regent Inglewood, CA 90301",424-331-5378,https://www.sammicheshoppe.com/,https://docs.google.com/spreadsheets/d/18w-0RBhwBBlXDN9kRV9DVSCAGSCjtHb9K0Pq2YBv18U/htmlview,33.9642951,-118.3529886,the-sammiche-shoppe-inglewood,true,GepaNFnlIsWk3dvRa8xzhw
the serving spoon,The Serving Spoon,Restaurants,Restaurants,"The Serving Spoon, 1403 Centinela Ave., Inglewood, (310) 412-3927,","1403 Centinela Ave Inglewood, CA 90302",310-412-3927,https://theservingspoon.net/,https://www.latimes.com/food/story/2020-05-31/black-owned-restaurants-in-los-angeles,33.97628555,-118.3634377,the-serving-spoon-inglewood,true,1xNQduoGeXOwp-06VneKeA
the snoball shop,SnoBall Shop,Restaurants,Restaurants,,"4452 W Slauson Los Angeles, CA 90043",,http://www.snoballshop.com/,https://docs.google.com/spreadsheets/d/18w-0RBhwBBlXDN9kRV9DVSCAGSCjtHb9K0Pq2YBv18U/htmlview,33.98864746,-118.3537903,snoball-shop-los-angeles,true,-RdSyuRT4vi2kqNQoxkSjg
the soul food shack,Soul Food Shack,Restaurants,Restaurants,,"1762 W El Segundo Blvd Gardena, CA 90249",323-923-8982,https://soulfoodshackgarde.wixsite.com,https://docs.google.com/spreadsheets/d/18w-0RBhwBBlXDN9kRV9DVSCAGSCjtHb9K0Pq2YBv18U/htmlview,33.916522,-118.30865,soul-food-shack-gardena,true,qsmIXoeSEVWGq0RegtyqrA
the vtree,Vtree at Yamashiro,Restaurants,Restaurants,,"1999 N Sycamore Ave Hollywood, CA 90068",323-466-5125,https://www.thevtreehollywood.com/,https://docs.google.com/spreadsheets/d/18w-0RBhwBBlXDN9kRV9DVSCAGSCjtHb9K0Pq2YBv18U/htmlview,34.105866,-118.342158,vtree-at-yamashiro-hollywood,true,RDaB-JGgyjIGf_S_g0oy3Q
the wood urban kitchen,The Wood Urban Kitchen & Sports Lounge,Restaurants,Restaurants,,"129 N Market St Inglewood, CA 90301",310-466-9741,https://www.yelp.com/biz/the-wood-urban-kitchen,https://docs.google.com/spreadsheets/d/18w-0RBhwBBlXDN9kRV9DVSCAGSCjtHb9K0Pq2YBv18U/htmlview,33.96362,-118.352275,the-wood-urban-kitchen-and-sports-lounge-inglewood,true,HwTv2sTZDYjHxT9AS-MUSA
thrive doughnuts,Thrive Doughnuts,Restaurants,Restaurants,"Thrive Doughnuts, Canoga Park,","9030 Owensmouth Ave Canoga Park, CA 91304",,https://www.thrivedoughnuts.com/,https://www.latimes.com/food/story/2020-05-31/black-owned-restaurants-in-los-angeles,,,,false,
tiffany cakes desserts,Tiffany Cakes Desserts,Restaurants,Restaurants,,,,,https://docs.google.com/spreadsheets/d/18w-0RBhwBBlXDN9kRV9DVSCAGSCjtHb9K0Pq2YBv18U/htmlview,,,,false,
time 2 grub,TIME 2 GRUB,Restaurants,Restaurants,,"1140 Commerce Center Dr Ste P11 inside Sol Plaza Boutique Mall Lancaster, CA 93534",661-468-0280,https://www.yelp.com/biz/time-2-grub-lancaster-4,https://docs.google.com/spreadsheets/d/18w-0RBhwBBlXDN9kRV9DVSCAGSCjtHb9K0Pq2YBv18U/htmlview,34.67165794,-118.151238,time-2-grub-lancaster-4,true,aYhKKdQ9lOLkihADmJHKfA
tisket a tasket,Tisket A Tasket Catering & Food Services,Restaurants,Restaurants,,"3850 W Slauson Ave Los Angeles, CA 90043",323-291-8021,https://tisketatasketcatering.com/,https://docs.google.com/spreadsheets/d/18w-0RBhwBBlXDN9kRV9DVSCAGSCjtHb9K0Pq2YBv18U/htmlview,33.9888251,-118.3414326,tisket-a-tasket-catering-and-food-services-los-angeles,true,VaS8pZT8Ycgy0S-dd8sAOQ
totos african cuisine van nuys,Totos' African Cuisine,Restaurants,Restaurants,,"15355 Sherman Way Van Nuys, CA 91406",818-781-3015,https://www.yelp.com/biz/totos-african-cuisine,https://docs.google.com/spreadsheets/d/18w-0RBhwBBlXDN9kRV9DVSCAGSCjtHb9K0Pq2YBv18U/htmlview,34.20177,-118.46801,totos-african-cuisine-van-nuys,true,OhchQDgESz6kZLXHYVcJsQ
tracy's belizean restaurant,Tracey's Belizean Restaurant,Restaurants,Restaurants,,"3810 S Western Ave Los Angeles, CA 90062",323-735-2166,https://www.yelp.com/biz/traceys-belizean,https://docs.google.com/spreadsheets/d/18w-0RBhwBBlXDN9kRV9DVSCAGSCjtHb9K0Pq2YBv18U/htmlview,34.0169944,-118.308632,traceys-belizean-restaurant-los-angeles,true,mQMCi60kT3UeVuDiOckG_w
trap kitchen,Trap Kitchen,Restaurants,Restaurants,,"4712 Lomita St Los Angeles, CA 90019",503-442-0748,https://www.trapkitchen.com/,https://docs.google.com/spreadsheets/d/18w-0RBhwBBlXDN9kRV9DVSCAGSCjtHb9K0Pq2YBv18U/htmlview,,,,false,
treme kitchen,Treme Kitchen,Restaurants,Restaurants,,"Leimert Park, CA 90008",,https://www.tremekitchen.com/,https://docs.google.com/spreadsheets/d/18w-0RBhwBBlXDN9kRV9DVSCAGSCjtHb9K0Pq2YBv18U/htmlview,34.00838089,-118.330452,treme-kitchen-leimert-park,true,ML8M8BBpq8z5QmIHT4D2bg
trencher,Trencher,Restaurants,Restaurants,,"1305 Portia St Los Angeles, CA 90026",323-604-9621,http://trencherla.com,https://loveandloathingla.com/list-of-black-owned-businesses-in-la/,34.07594168,-118.2541,trencher-los-angeles-2,true,fXM8bctfUDmzmlzZC4oGBA
twins smoke house bbq,Twins Smoke House BBQ,Restaurants,Restaurants,,"1555 W Willow St Long Beach, CA 90810",562-427-4800,http://www.twinssmokehouse.com/,https://docs.google.com/spreadsheets/d/18w-0RBhwBBlXDN9kRV9DVSCAGSCjtHb9K0Pq2YBv18U/htmlview,33.8045249,-118.2137501,twins-smoke-house-bbq-long-beach,true,7VhcFdu-x3SVve-8h0K1eg
uedf fish & chips,UEDF Fish & Chips,Restaurants,Restaurants,,"2191 N Lake Ave Altadena, CA 91001",626-794-0277,https://www.facebook.com/UEDF-FISH-Chips,https://docs.google.com/spreadsheets/d/18w-0RBhwBBlXDN9kRV9DVSCAGSCjtHb9K0Pq2YBv18U/htmlview,34.1834564,-118.1317825,uedf-fish-and-chips-altadena,true,0KYAupR7scjkMhT72nO3nA
uncle andre's bbq,Uncle Andre's BBQ,Restaurants,Restaurants,,"11715 Moorpark St Studio City, CA 91604",818-763-8414,https://www.yelp.com/biz/uncle-andres-bbq,https://docs.google.com/spreadsheets/d/18w-0RBhwBBlXDN9kRV9DVSCAGSCjtHb9K0Pq2YBv18U/htmlview,34.150678,-118.388265,uncle-andres-bbq-studio-city,true,2b0t01mATtzhY3s-o-TxvA
undergrind cafe,Undergrind Cafe,Restaurants,Restaurants,"Undergrind has a variety of flavored lattes, coffee drinks and breakfast foods. Open for takeout and delivery. 2713 S Robertson Blvd., Beverlywood,","2713 S Robertson Blvd Los Angeles, CA 90034",310-730-6392,http://www.undergrindcafe.com/,https://www.latimes.com/lifestyle/story/2020-06-12/heres-a-list-of-black-owned-coffee-shops-in-la,34.03734,-118.38892,undergrind-cafe-los-angeles,true,BFnR7RkLsDUoLd9P3z2l9Q
union,Union,Restaurants,Restaurants,"Avant garde meets streetwear at Chris Gibbs’ and Beth Birkett’s boutique in the “guy’s gulch” stretch of La Brea Avenue. 110 S. La Brea Ave., Los Angeles, (323) 549-6950, store.unionlosangeles.com","37 E Union St Pasadena, CA 91103",626-795-5841,https://store.unionlosangeles.com/,https://www.latimes.com/lifestyle/story/2020-06-03/black-owned-businesses-in-los-angeles,34.146963,-118.1496096,union-pasadena,true,gWh55W-4UJYU7NTYGxGUbg
urban comfort foods,Urban Comfort Foods,Restaurants,Restaurants,,"6130 S AVALON BLVD 126. LOS ANGELES, CA 90022",,,https://docs.google.com/spreadsheets/d/18w-0RBhwBBlXDN9kRV9DVSCAGSCjtHb9K0Pq2YBv18U/htmlview,,,,false,
vanillablack,VanillaBlack,Restaurants,Restaurants,"Vanessa Butler’s small coffee shop in Echo Park has a variety of coffee drinks including a “vanilla bomb” and vegan food options. 1825 Sunset Blvd., Echo Park.","1825 Sunset Blvd Los Angeles, CA 90026",,,https://www.latimes.com/lifestyle/story/2020-06-12/heres-a-list-of-black-owned-coffee-shops-in-la,34.07808787,-118.2599956,vanillablack-los-angeles,true,hu_bFalIX0VijV-Kl88R8w
veronica's kitchen,Veronica's Kitchen,Restaurants,Restaurants,"Veronica’s Kitchen, 401 E. Hillcrest Blvd., Inglewood, (310) 673-4890,","401 E Hillcrest Blvd Inglewood, CA 90301",310-673-4890,https://www.facebook.com/pages/category/African-Restaurant/Veronicas-Kitchen-115691395180607/,https://www.latimes.com/food/story/2020-05-31/black-owned-restaurants-in-los-angeles,33.9612,-118.34977,veronicas-kitchen-inglewood,true,o9v7QpQcBwdvFIPdUJxkOA
voodoo vegan,Voodoo Vegan,Restaurants,Restaurants,,"Los Angeles, CA 90047",310-437-9632,https://www.yelp.com/biz/voodoo-vegan,https://docs.google.com/spreadsheets/d/18w-0RBhwBBlXDN9kRV9DVSCAGSCjtHb9K0Pq2YBv18U/htmlview,33.94351959,-118.3103256,voodoo-vegan-los-angeles,true,IiOCPQrQ6Gsl5r0R9xrguw
vurger guyz,Vurger Guyz,Restaurants,Restaurants,,"Los Angeles, CA 90017",213-298-1724,https://www.vurgerguyz.com/,https://docs.google.com/spreadsheets/d/18w-0RBhwBBlXDN9kRV9DVSCAGSCjtHb9K0Pq2YBv18U/htmlview,34.05289,-118.26351,vurger-guyz-los-angeles,true,BBISsVQ-GMYr2emuWgtDPw
watts burgers,Watts Burgers,Restaurants,Restaurants,"Watts Burgers, 10203 S. Central Ave., Watts, (323) 749-0556","10203 S Central Ave Los Angeles, CA 90002",323-749-0556,,https://www.latimes.com/food/story/2020-05-31/black-owned-restaurants-in-los-angeles,33.94401477,-118.2542783,watts-burgers-los-angeles,true,Ekrm1S_5x5dcgZeYgbgZRA
watts coffee house,Watts Coffee House,Restaurants,Restaurants,,"1827 E 103rd St Los Angeles, CA 90002",323-249-4343,https://www.facebook.com/wherewe,https://docs.google.com/spreadsheets/d/18w-0RBhwBBlXDN9kRV9DVSCAGSCjtHb9K0Pq2YBv18U/htmlview,33.943472,-118.239854,watts-coffee-house-los-angeles,true,jXlGcuFRUSBxm5ycg3UQOw
wecupcake,We Cupcake,Restaurants,Restaurants,"WeCupcake, 10807 Crenshaw Blvd., Inglewood, (424) 261-3080","10807 Crenshaw Blvd Inglewood, CA 90303",424-261-3080,http://www.wecupcake.net/,https://www.latimes.com/food/story/2020-05-31/black-owned-restaurants-in-los-angeles,33.9374182,-118.326754,we-cupcake-inglewood,true,8G7fncx8gHqczftW0z3iMQ
who's hungry caribbean restaurant,Who's Hungry Caribbean Restaurant,Restaurants,Restaurants,,"2959 Crenshaw Blvd Los Angeles, CA 90016",213-610-4199,https://www.whoshungrycatering.com/,https://docs.google.com/spreadsheets/d/18w-0RBhwBBlXDN9kRV9DVSCAGSCjtHb9K0Pq2YBv18U/htmlview,34.027839,-118.335351,whos-hungry-caribbean-restaurant-los-angeles,true,mf0i0G98feaqN6Q-ke6v6Q
wi jammin cafe,Wi Jammin Caribbean Cafe,Restaurants,Restaurants,,"1359 S Redondo Blvd Los Angeles, CA 90019",323-936-1039,https://www.wijammincafe.com/,https://docs.google.com/spreadsheets/d/18w-0RBhwBBlXDN9kRV9DVSCAGSCjtHb9K0Pq2YBv18U/htmlview,34.04838749,-118.3493823,wi-jammin-caribbean-cafe-los-angeles,true,tzhSIM2rlEVjBB5qe7j63g
wilson's bbq rib shack,Wilson's BBQ Rib Shack,Restaurants,Restaurants,,"300 N El Molino St Alhambra, CA 91801",323-457-0258,https://www.wilsonsbbqribshack.com/,https://docs.google.com/spreadsheets/d/18w-0RBhwBBlXDN9kRV9DVSCAGSCjtHb9K0Pq2YBv18U/htmlview,34.10375,-118.11753,wilsons-bbq-rib-shack-alhambra-2,true,TYxzlQFrkFHxZIOhJHlgAg
wingopolis,Wingopolis,Restaurants,Restaurants,"Wingopolis, 740 Centinela Ave., #103, Inglewood, (310) 910-0291","740 Centinela Ave Ste 103 Inglewood, CA 90302",310-910-0291,,https://www.latimes.com/food/story/2020-05-31/black-owned-restaurants-in-los-angeles,33.97566,-118.35206,wingopolis-inglewood,true,PMmxE1TI6dWGvln6DnIcQg
wings and pot,Wings & Pot,Restaurants,Restaurants,,"2108 W Manchester Ave Los Angeles, CA 90047",323-920-7575,https://www.yelp.com/biz/wings-and-pot,https://docs.google.com/spreadsheets/d/18w-0RBhwBBlXDN9kRV9DVSCAGSCjtHb9K0Pq2YBv18U/htmlview,33.95968,-118.31648,wings-and-pot-los-angeles,true,-2j7SP_13FMBGOr4ds_nfQ
woodspoon,Wood Spoon,Restaurants,Restaurants,"Woodspoon, 107 W. 9th St., Los Angeles, (213) 629-1765,","107 W 9th St Los Angeles, CA 90015",213-629-1765,https://www.instagram.com/vanillablackla/,https://www.latimes.com/food/story/2020-05-31/black-owned-restaurants-in-los-angeles,34.04191749,-118.2551352,wood-spoon-los-angeles-5,true,ta7GyGyMGnn_LeJkUeLqdQ
woody's bbq,Woody's Bar-B-Que,Restaurants,Restaurants,"Woody’s BBQ, 475 S. Market St., Inglewood, (310) 672-4200,","3446 W Slauson Ave Los Angeles, CA 90043",323-294-9443,http://www.woodysbarbquela.com/,https://www.latimes.com/food/story/2020-05-31/black-owned-restaurants-in-los-angeles,33.98880643,-118.3326876,woodys-bar-b-que-los-angeles,true,w6yYnB0uUkE6cGu384zm3A
world wide tacos,Worldwide Tacos,Restaurants,Restaurants,,"2419 W Martin Luther King J Los Angeles, CA 90008",323-291-1500,http://worldwidetacos.com/,https://docs.google.com/spreadsheets/d/18w-0RBhwBBlXDN9kRV9DVSCAGSCjtHb9K0Pq2YBv18U/htmlview,34.0109334,-118.3198899,worldwide-tacos-los-angeles,true,HpGFjRML4rKx6WCdZbGc7w
wowo's bbq,Wowo's Smokin' Hot BBQ,Restaurants,Restaurants,,"13022 Whittier Blvd Whittier, CA 90602",562-273-5477,https://www.wowosbbq.com/,https://docs.google.com/spreadsheets/d/18w-0RBhwBBlXDN9kRV9DVSCAGSCjtHb9K0Pq2YBv18U/htmlview,33.96495,-118.03652,wowos-smokin-hot-bbq-whittier-2,true,4JmkRUEyfLYVqZElrSFQYQ
yo-way eatery,Yo-Way Eatery,Restaurants,Restaurants,"Yo Way Deli, 17901 Vermont Ave., Gardena, (424) 228-1101,","17901 S Vermont Ste D Gardena, CA 90248",424-228-1101,https://yowayeatery.com/,https://www.latimes.com/food/story/2020-05-31/black-owned-restaurants-in-los-angeles,33.8678648,-118.2911208,yo-way-eatery-gardena-2,true,26qU1-u0hSYOjYDaqIcGPw
yordanos ethiopian restaurant,Yordanos Ethiopian Restaurant,Restaurants,Restaurants,,"4020 W Martin Luther King Jr Blvd Los Angeles, CA 90008",323-815-9262,https://www.yelp.com/biz/yordanos,https://docs.google.com/spreadsheets/d/18w-0RBhwBBlXDN9kRV9DVSCAGSCjtHb9K0Pq2YBv18U/htmlview,34.01550683,-118.3433355,yordanos-ethiopian-restaurant-los-angeles,true,SVOMbZtuceU-_wPTt_5SAw
your bakery 1st,Your Bakery 1st,Restaurants,Restaurants,,"6525 West Blvd Inglewood, CA 90302",310-673-0744,https://www.yourbakery1st.com/,https://docs.google.com/spreadsheets/d/18w-0RBhwBBlXDN9kRV9DVSCAGSCjtHb9K0Pq2YBv18U/htmlview,33.9798801,-118.3353349,your-bakery-1st-inglewood,true,_fZrwdeJDxBojcAPfaPsMA
zac's sweet shop,Zac'S Sweet Shop,Restaurants,Restaurants,,"230 W Ave 26 Los Angeles, CA 90031",,https://zacssweetshop.com/,https://docs.google.com/spreadsheets/d/18w-0RBhwBBlXDN9kRV9DVSCAGSCjtHb9K0Pq2YBv18U/htmlview,,,,false,
